{"type":"FeatureCollection","name":"apa_limite","crs":{"type":"name","properties":{"name":"urn:ogc:def:crs:OGC:1.3:CRS84"}},"xy_coordinate_resolution":1e-05,"bbox":[-47.41408,-23.84651,-46.98651,-23.55277],"features":[{"type":"Feature","properties":{"nome":"APA de Itupararanga","area_km2":938.31},"bbox":[-47.41408,-23.84651,-46.98651,-23.55277],"geometry":{"type":"Polygon","coordinates":[[[-47.17196,-23.56084],[-47.17193,-23.56127],[-47.17143,-23.56153],[-47.17027,-23.5617],[-47.16985,-23.56216],[-47.16987,-23.56329],[-47.17004,-23.5639],[-47.17073,-23.56536],[-47.17164,-23.56611],[-47.17282,-23.56702],[-47.17366,-23.56768],[-47.17397,-23.5702],[-47.17307,-23.57165],[-47.17136,-23.57284],[-47.17003,-23.57316],[-47.16856,-23.57425],[-47.16685,-23.57526],[-47.16586,-23.5761],[-47.16445,-23.57697],[-47.16239,-23.57783],[-47.16099,-23.57776],[-47.15965,-23.57711],[-47.15881,-23.57657],[-47.1583,-23.5756],[-47.15723,-23.57519],[-47.15596,-23.57535],[-47.15484,-23.57592],[-47.15388,-23.57662],[-47.15238,-23.57664],[-47.1511,-23.5768],[-47.15013,-23.57716],[-47.14886,-23.57738],[-47.14811,-23.57753],[-47.14676,-23.57755],[-47.14586,-23.57791],[-47.14361,-23.57829],[-47.14227,-23.57865],[-47.14039,-23.57868],[-47.13888,-23.57835],[-47.13663,-23.57811],[-47.13513,-23.57813],[-47.13249,-23.57796],[-47.13098,-23.57728],[-47.12813,-23.57719],[-47.1267,-23.57721],[-47.1252,-23.5775],[-47.12299,-23.57775],[-47.1211,-23.57729],[-47.11945,-23.5771],[-47.11869,-23.57711],[-47.11795,-23.57761],[-47.11774,-23.57851],[-47.11685,-23.57901],[-47.11513,-23.57944],[-47.114,-23.57925],[-47.11219,-23.57893],[-47.11067,-23.57771],[-47.10992,-23.57772],[-47.10932,-23.57807],[-47.10918,-23.57842],[-47.10881,-23.57898],[-47.10846,-23.5805],[-47.10878,-23.58154],[-47.1088,-23.58327],[-47.10814,-23.58397],[-47.10777,-23.58452],[-47.10809,-23.58535],[-47.10832,-23.58604],[-47.10819,-23.58742],[-47.10723,-23.5882],[-47.10648,-23.58848],[-47.10535,-23.58836],[-47.10445,-23.58824],[-47.1037,-23.58825],[-47.10295,-23.58839],[-47.10176,-23.58876],[-47.09987,-23.58844],[-47.09911,-23.58762],[-47.09738,-23.58729],[-47.09595,-23.58731],[-47.09497,-23.58733],[-47.09331,-23.5868],[-47.09182,-23.58545],[-47.09165,-23.58372],[-47.09013,-23.58257],[-47.08823,-23.58135],[-47.08709,-23.58033],[-47.08573,-23.58034],[-47.08462,-23.5814],[-47.08389,-23.58224],[-47.08337,-23.58293],[-47.08127,-23.58296],[-47.07962,-23.58319],[-47.07963,-23.58354],[-47.07813,-23.5837],[-47.07663,-23.58392],[-47.07588,-23.58393],[-47.0751,-23.58208],[-47.07358,-23.5812],[-47.07019,-23.58055],[-47.06883,-23.58009],[-47.06627,-23.57984],[-47.06478,-23.58049],[-47.06366,-23.58071],[-47.0623,-23.58059],[-47.06079,-23.58005],[-47.05996,-23.57927],[-47.05969,-23.57818],[-47.05866,-23.5773],[-47.05736,-23.57795],[-47.05663,-23.57838],[-47.05574,-23.57844],[-47.0539,-23.57823],[-47.05219,-23.57713],[-47.05103,-23.57569],[-47.04957,-23.57458],[-47.04742,-23.57323],[-47.04634,-23.57189],[-47.04432,-23.57004],[-47.04326,-23.5686],[-47.04143,-23.56758],[-47.03915,-23.56648],[-47.03847,-23.56616],[-47.03786,-23.56475],[-47.03729,-23.56309],[-47.03669,-23.56218],[-47.03577,-23.56186],[-47.0351,-23.56207],[-47.03421,-23.5628],[-47.03376,-23.56322],[-47.03354,-23.56385],[-47.03257,-23.56544],[-47.032,-23.56637],[-47.03164,-23.5665],[-47.0311,-23.56713],[-47.03089,-23.56818],[-47.03058,-23.56847],[-47.02977,-23.56882],[-47.02842,-23.56925],[-47.02752,-23.56968],[-47.02686,-23.5706],[-47.02598,-23.5722],[-47.02568,-23.57354],[-47.02533,-23.57417],[-47.02457,-23.57501],[-47.024,-23.57606],[-47.02369,-23.5769],[-47.02355,-23.5778],[-47.02288,-23.57839],[-47.02258,-23.57956],[-47.02147,-23.58083],[-47.02149,-23.58258],[-47.02152,-23.58445],[-47.02155,-23.58645],[-47.02074,-23.58676],[-47.01998,-23.58697],[-47.01962,-23.58719],[-47.01963,-23.58802],[-47.02065,-23.58959],[-47.02227,-23.59156],[-47.0238,-23.59154],[-47.02625,-23.59151],[-47.02878,-23.59211],[-47.0288,-23.59302],[-47.02789,-23.59339],[-47.0269,-23.59389],[-47.02599,-23.59482],[-47.0254,-23.59603],[-47.02526,-23.59694],[-47.02505,-23.59779],[-47.0252,-23.59814],[-47.02506,-23.59871],[-47.0243,-23.59907],[-47.02354,-23.59943],[-47.02332,-23.59948],[-47.02074,-23.59912],[-47.02074,-23.59917],[-47.02059,-23.59917],[-47.02059,-23.59931],[-47.02074,-23.59931],[-47.02074,-23.59944],[-47.02089,-23.59944],[-47.02089,-23.59958],[-47.02104,-23.59958],[-47.02104,-23.59998],[-47.02119,-23.59998],[-47.02119,-23.6001],[-47.02103,-23.60017],[-47.02056,-23.60018],[-47.02022,-23.59983],[-47.02005,-23.59966],[-47.01998,-23.59918],[-47.0203,-23.59918],[-47.02029,-23.59906],[-47.01995,-23.59901],[-47.01986,-23.59834],[-47.01981,-23.59512],[-47.01843,-23.59463],[-47.01807,-23.59469],[-47.01773,-23.59458],[-47.01605,-23.59488],[-47.01491,-23.5956],[-47.01378,-23.59632],[-47.01273,-23.59795],[-47.01098,-23.59882],[-47.01035,-23.59886],[-47.00923,-23.59799],[-47.00888,-23.59803],[-47.00859,-23.59806],[-47.00852,-23.59801],[-47.00753,-23.59802],[-47.00677,-23.59852],[-47.0068,-23.60028],[-47.0065,-23.60247],[-47.00624,-23.60248],[-47.00624,-23.60261],[-47.0058,-23.60262],[-47.0058,-23.60275],[-47.00551,-23.60276],[-47.00551,-23.60289],[-47.00536,-23.60289],[-47.00536,-23.60303],[-47.00522,-23.60303],[-47.00522,-23.60317],[-47.00507,-23.60317],[-47.00507,-23.6033],[-47.00493,-23.60331],[-47.00493,-23.60344],[-47.00464,-23.60344],[-47.00464,-23.60358],[-47.00434,-23.60358],[-47.00435,-23.60372],[-47.00405,-23.60372],[-47.00405,-23.60386],[-47.00376,-23.60386],[-47.00376,-23.604],[-47.00332,-23.604],[-47.00333,-23.60441],[-47.00347,-23.60441],[-47.00348,-23.60454],[-47.00362,-23.60454],[-47.00363,-23.60481],[-47.00348,-23.60481],[-47.00348,-23.60495],[-47.00348,-23.60503],[-47.00172,-23.60567],[-47.00021,-23.6066],[-46.99907,-23.60746],[-46.9981,-23.6091],[-46.9961,-23.6119],[-46.9963,-23.61351],[-46.99643,-23.61483],[-46.99645,-23.61598],[-46.99654,-23.61753],[-46.99656,-23.61836],[-46.99633,-23.62001],[-46.99611,-23.62205],[-46.99577,-23.62331],[-46.99575,-23.62433],[-46.9962,-23.62587],[-46.99681,-23.62628],[-46.99683,-23.62638],[-46.99685,-23.62639],[-46.99702,-23.62648],[-46.99716,-23.62656],[-46.9973,-23.62664],[-46.99745,-23.62672],[-46.99752,-23.62676],[-46.99845,-23.62743],[-46.99864,-23.62815],[-46.99884,-23.62986],[-46.99915,-23.63134],[-46.99936,-23.63289],[-46.99918,-23.63339],[-46.99812,-23.63422],[-46.99698,-23.63463],[-46.99545,-23.63492],[-46.99446,-23.63576],[-46.99403,-23.63593],[-46.99326,-23.63744],[-46.99327,-23.6384],[-46.99276,-23.63956],[-46.99213,-23.64072],[-46.9916,-23.64149],[-46.99121,-23.64264],[-46.99078,-23.64521],[-46.99,-23.64604],[-46.98898,-23.64784],[-46.98847,-23.64882],[-46.98797,-23.65066],[-46.98685,-23.65246],[-46.98696,-23.65333],[-46.98761,-23.65453],[-46.98773,-23.65574],[-46.98675,-23.65681],[-46.98651,-23.6581],[-46.98742,-23.65915],[-46.98837,-23.66011],[-46.98866,-23.66155],[-46.98841,-23.66228],[-46.98806,-23.66364],[-46.98792,-23.66495],[-46.98794,-23.66591],[-46.98873,-23.66653],[-46.99032,-23.66724],[-46.99095,-23.66733],[-46.9927,-23.66817],[-46.99336,-23.67034],[-46.99438,-23.67132],[-46.99429,-23.67239],[-46.99368,-23.67394],[-46.9947,-23.67528],[-46.99498,-23.67625],[-46.99633,-23.6785],[-46.99624,-23.67986],[-46.99626,-23.68106],[-46.99637,-23.6813],[-46.99555,-23.68274],[-46.99557,-23.68439],[-46.99653,-23.685],[-46.99787,-23.68668],[-46.99709,-23.68775],[-46.99569,-23.68874],[-46.99435,-23.69045],[-46.99464,-23.69213],[-46.99536,-23.69445],[-46.9968,-23.69588],[-46.99801,-23.69634],[-46.99882,-23.69749],[-46.99928,-23.6994],[-46.99991,-23.70024],[-46.99938,-23.70178],[-46.99841,-23.70305],[-46.99771,-23.70533],[-46.99774,-23.70732],[-46.99776,-23.70863],[-46.99808,-23.70959],[-46.99959,-23.7109],[-47.00139,-23.71144],[-47.00314,-23.71284],[-47.00502,-23.71458],[-47.00529,-23.71583],[-47.00531,-23.71725],[-47.00471,-23.71822],[-47.00348,-23.71881],[-47.00244,-23.71939],[-47.00401,-23.72124],[-47.00403,-23.72249],[-47.00388,-23.72449],[-47.00283,-23.72515],[-47.0013,-23.72591],[-47.00103,-23.72847],[-47.0023,-23.73084],[-47.00307,-23.73271],[-47.00402,-23.73395],[-47.00465,-23.73536],[-47.005,-23.73752],[-47.00564,-23.73939],[-47.00659,-23.74051],[-47.00831,-23.74234],[-47.00835,-23.74471],[-47.00758,-23.7486],[-47.00793,-23.75134],[-47.00781,-23.75565],[-47.00682,-23.75851],[-47.00601,-23.75899],[-47.00737,-23.76039],[-47.0079,-23.76181],[-47.00968,-23.7632],[-47.01124,-23.76432],[-47.01148,-23.76668],[-47.01265,-23.76932],[-47.01235,-23.76998],[-47.01082,-23.77057],[-47.01157,-23.77265],[-47.01117,-23.7736],[-47.00933,-23.7741],[-47.00861,-23.77458],[-47.00811,-23.77553],[-47.00812,-23.77619],[-47.00806,-23.77837],[-47.0091,-23.77949],[-47.00943,-23.78053],[-47.00996,-23.78185],[-47.01101,-23.78288],[-47.01277,-23.7838],[-47.01422,-23.78426],[-47.01558,-23.78537],[-47.01715,-23.78706],[-47.0182,-23.78894],[-47.02047,-23.7891],[-47.02254,-23.78935],[-47.02382,-23.79008],[-47.02404,-23.79121],[-47.02559,-23.79138],[-47.02692,-23.79117],[-47.02899,-23.79181],[-47.03105,-23.79206],[-47.03269,-23.79157],[-47.03452,-23.79012],[-47.03554,-23.78945],[-47.03656,-23.78868],[-47.03812,-23.78932],[-47.04038,-23.78929],[-47.04222,-23.78851],[-47.04346,-23.78878],[-47.0445,-23.78923],[-47.04532,-23.78922],[-47.04605,-23.78969],[-47.04688,-23.79034],[-47.04844,-23.79126],[-47.05062,-23.79237],[-47.05198,-23.79377],[-47.05323,-23.79423],[-47.0558,-23.79401],[-47.05681,-23.79305],[-47.05752,-23.79228],[-47.05957,-23.79178],[-47.06089,-23.79082],[-47.06264,-23.79032],[-47.06417,-23.78964],[-47.06519,-23.78915],[-47.0665,-23.78743],[-47.06818,-23.78726],[-47.0695,-23.78629],[-47.07022,-23.78581],[-47.07176,-23.78598],[-47.07281,-23.78672],[-47.07282,-23.78786],[-47.07244,-23.78976],[-47.07313,-23.78969],[-47.0731,-23.78981],[-47.07486,-23.78966],[-47.07554,-23.79019],[-47.07576,-23.79113],[-47.07598,-23.79208],[-47.07704,-23.79377],[-47.07995,-23.79571],[-47.08151,-23.79636],[-47.08288,-23.79754],[-47.08342,-23.79914],[-47.08274,-23.80123],[-47.08297,-23.80312],[-47.08227,-23.80408],[-47.08146,-23.80532],[-47.0825,-23.80597],[-47.08303,-23.80691],[-47.08336,-23.80832],[-47.0846,-23.80859],[-47.08513,-23.80925],[-47.08585,-23.80924],[-47.0859,-23.80929],[-47.08699,-23.80924],[-47.08751,-23.81016],[-47.08722,-23.8114],[-47.08724,-23.81234],[-47.08828,-23.8128],[-47.09032,-23.81341],[-47.09138,-23.81405],[-47.09206,-23.81409],[-47.09206,-23.81409],[-47.09397,-23.8142],[-47.09574,-23.81338],[-47.09729,-23.81306],[-47.09877,-23.81298],[-47.09913,-23.8125],[-47.09968,-23.81264],[-47.10096,-23.8134],[-47.10216,-23.81434],[-47.10258,-23.81423],[-47.10278,-23.81437],[-47.10567,-23.81349],[-47.10595,-23.81321],[-47.10721,-23.81375],[-47.10855,-23.81425],[-47.10999,-23.81593],[-47.11081,-23.81692],[-47.11137,-23.81686],[-47.11148,-23.817],[-47.11321,-23.81673],[-47.11398,-23.8163],[-47.11476,-23.8163],[-47.11477,-23.8163],[-47.11477,-23.8163],[-47.11551,-23.81629],[-47.11563,-23.81505],[-47.11698,-23.81377],[-47.11683,-23.81136],[-47.1175,-23.80947],[-47.11844,-23.80793],[-47.11963,-23.8078],[-47.12068,-23.80894],[-47.12127,-23.81059],[-47.12284,-23.811],[-47.12294,-23.81083],[-47.1236,-23.81098],[-47.12478,-23.8088],[-47.12487,-23.8083],[-47.12599,-23.8062],[-47.12641,-23.80626],[-47.12656,-23.80618],[-47.12706,-23.80623],[-47.12875,-23.80542],[-47.12988,-23.80459],[-47.13013,-23.8044],[-47.1314,-23.80403],[-47.13169,-23.80458],[-47.13241,-23.80457],[-47.13244,-23.80461],[-47.13279,-23.80462],[-47.1336,-23.80542],[-47.13432,-23.80658],[-47.13507,-23.80659],[-47.13509,-23.80661],[-47.13637,-23.80659],[-47.13678,-23.80659],[-47.1368,-23.80658],[-47.13755,-23.80657],[-47.13942,-23.80559],[-47.14111,-23.80426],[-47.14276,-23.80424],[-47.14354,-23.80348],[-47.14476,-23.80344],[-47.14529,-23.80347],[-47.14533,-23.80342],[-47.14608,-23.80339],[-47.14675,-23.80233],[-47.1477,-23.80166],[-47.14826,-23.79997],[-47.14871,-23.80029],[-47.14929,-23.80102],[-47.15004,-23.80101],[-47.15006,-23.80103],[-47.1504,-23.80105],[-47.15111,-23.80243],[-47.15113,-23.80382],[-47.15247,-23.80471],[-47.15484,-23.80507],[-47.15506,-23.80505],[-47.15506,-23.80506],[-47.15696,-23.80501],[-47.15808,-23.80382],[-47.15899,-23.80245],[-47.15931,-23.80198],[-47.16023,-23.80238],[-47.1612,-23.80381],[-47.16241,-23.80496],[-47.16419,-23.80644],[-47.16525,-23.80716],[-47.16645,-23.80853],[-47.16708,-23.80857],[-47.1671,-23.8086],[-47.16814,-23.80863],[-47.16825,-23.80864],[-47.16826,-23.80864],[-47.16891,-23.80866],[-47.17016,-23.80821],[-47.17156,-23.80859],[-47.17308,-23.80888],[-47.17348,-23.81009],[-47.17383,-23.81117],[-47.17409,-23.81277],[-47.17585,-23.81362],[-47.17661,-23.81357],[-47.17723,-23.81366],[-47.1782,-23.81352],[-47.17973,-23.81302],[-47.18055,-23.813],[-47.18249,-23.81439],[-47.18274,-23.81526],[-47.18196,-23.81701],[-47.18056,-23.8182],[-47.17963,-23.81922],[-47.178,-23.82041],[-47.17612,-23.82144],[-47.17556,-23.82188],[-47.17506,-23.82306],[-47.175,-23.82493],[-47.17555,-23.8262],[-47.17579,-23.82677],[-47.17629,-23.82837],[-47.17703,-23.82832],[-47.17704,-23.82837],[-47.17894,-23.82825],[-47.18068,-23.82771],[-47.18133,-23.8277],[-47.18324,-23.82805],[-47.18505,-23.82881],[-47.18667,-23.82965],[-47.18703,-23.82961],[-47.18716,-23.82968],[-47.18789,-23.82959],[-47.18943,-23.83049],[-47.18983,-23.83165],[-47.18923,-23.83288],[-47.19271,-23.83338],[-47.19462,-23.83439],[-47.19607,-23.83611],[-47.19633,-23.83798],[-47.19636,-23.83937],[-47.19696,-23.84145],[-47.1991,-23.84216],[-47.20105,-23.843],[-47.20234,-23.84324],[-47.20283,-23.84316],[-47.20347,-23.84318],[-47.20397,-23.8431],[-47.2051,-23.84446],[-47.2071,-23.8453],[-47.20775,-23.84523],[-47.20799,-23.84532],[-47.2102,-23.84501],[-47.21208,-23.84588],[-47.21351,-23.84643],[-47.21373,-23.84628],[-47.21426,-23.84651],[-47.2154,-23.84566],[-47.21308,-23.84218],[-47.21241,-23.83956],[-47.21221,-23.83699],[-47.21245,-23.83699],[-47.21267,-23.837],[-47.21269,-23.83699],[-47.21337,-23.83698],[-47.21546,-23.83567],[-47.21671,-23.83399],[-47.21672,-23.83249],[-47.21835,-23.8321],[-47.21915,-23.83056],[-47.21859,-23.82886],[-47.21929,-23.82899],[-47.22044,-23.8294],[-47.22164,-23.83082],[-47.22223,-23.8319],[-47.22296,-23.83192],[-47.22297,-23.83197],[-47.22409,-23.83195],[-47.22432,-23.83157],[-47.22517,-23.8291],[-47.22563,-23.82693],[-47.22716,-23.82444],[-47.22808,-23.82352],[-47.23048,-23.8228],[-47.2337,-23.82225],[-47.23567,-23.82123],[-47.23381,-23.81827],[-47.23373,-23.81726],[-47.23449,-23.81589],[-47.23566,-23.8157],[-47.23689,-23.81688],[-47.23771,-23.81774],[-47.23968,-23.81932],[-47.24159,-23.82059],[-47.24335,-23.821],[-47.24668,-23.82213],[-47.24801,-23.82246],[-47.24943,-23.82287],[-47.25133,-23.82315],[-47.25148,-23.82308],[-47.25251,-23.82305],[-47.25305,-23.82277],[-47.25367,-23.82239],[-47.25401,-23.8222],[-47.25475,-23.82183],[-47.25679,-23.82075],[-47.25917,-23.82061],[-47.26003,-23.82067],[-47.26086,-23.82081],[-47.26233,-23.82122],[-47.2624,-23.82109],[-47.26309,-23.82131],[-47.26371,-23.82004],[-47.26499,-23.81861],[-47.26626,-23.81785],[-47.26809,-23.81772],[-47.27434,-23.81785],[-47.27548,-23.81695],[-47.27538,-23.81208],[-47.27615,-23.80995],[-47.27964,-23.80806],[-47.2813,-23.80618],[-47.28426,-23.80613],[-47.28609,-23.80565],[-47.28718,-23.80463],[-47.28769,-23.80455],[-47.28873,-23.8048],[-47.29015,-23.80522],[-47.29047,-23.80506],[-47.291,-23.80517],[-47.29255,-23.80453],[-47.29355,-23.80463],[-47.2937,-23.80465],[-47.29546,-23.80592],[-47.29659,-23.8066],[-47.29751,-23.80763],[-47.29813,-23.80784],[-47.30003,-23.80842],[-47.30008,-23.80836],[-47.30072,-23.8086],[-47.30301,-23.80614],[-47.30576,-23.80378],[-47.30999,-23.80172],[-47.31144,-23.80012],[-47.31283,-23.79747],[-47.31367,-23.79628],[-47.31411,-23.79507],[-47.31625,-23.79382],[-47.31753,-23.79361],[-47.31801,-23.79275],[-47.3173,-23.79115],[-47.31531,-23.78969],[-47.3099,-23.78877],[-47.3085,-23.78853],[-47.30812,-23.78854],[-47.30791,-23.7885],[-47.30675,-23.7885],[-47.30526,-23.78795],[-47.30426,-23.78689],[-47.30308,-23.78072],[-47.30167,-23.77869],[-47.30279,-23.77737],[-47.30387,-23.77733],[-47.3052,-23.77792],[-47.30517,-23.77757],[-47.30586,-23.77782],[-47.30567,-23.77542],[-47.3046,-23.77164],[-47.30325,-23.76938],[-47.3028,-23.76731],[-47.30115,-23.76568],[-47.3017,-23.76498],[-47.30271,-23.76496],[-47.30392,-23.76494],[-47.30393,-23.7649],[-47.30456,-23.7649],[-47.30491,-23.76341],[-47.30337,-23.76254],[-47.30204,-23.7614],[-47.30178,-23.76001],[-47.30015,-23.75919],[-47.29844,-23.7579],[-47.29764,-23.7562],[-47.29747,-23.75489],[-47.29728,-23.7569],[-47.29698,-23.75631],[-47.29671,-23.75468],[-47.29694,-23.75356],[-47.29748,-23.75244],[-47.29746,-23.7511],[-47.29783,-23.74887],[-47.29953,-23.74725],[-47.30193,-23.74613],[-47.3048,-23.74399],[-47.30622,-23.74187],[-47.30651,-23.73919],[-47.30649,-23.7376],[-47.30838,-23.73535],[-47.31015,-23.73328],[-47.3113,-23.73199],[-47.31337,-23.73184],[-47.31497,-23.73238],[-47.31692,-23.73299],[-47.31927,-23.73296],[-47.32083,-23.73134],[-47.32113,-23.72867],[-47.32006,-23.72665],[-47.31995,-23.7243],[-47.32113,-23.72338],[-47.3231,-23.72315],[-47.32462,-23.72118],[-47.32548,-23.71825],[-47.32593,-23.71568],[-47.3273,-23.713],[-47.32849,-23.71285],[-47.33118,-23.71346],[-47.33464,-23.71386],[-47.33674,-23.71324],[-47.33883,-23.71192],[-47.34151,-23.71214],[-47.34203,-23.71375],[-47.34403,-23.71488],[-47.34672,-23.71562],[-47.35079,-23.71511],[-47.35281,-23.71378],[-47.35474,-23.71135],[-47.35591,-23.70952],[-47.35694,-23.70788],[-47.35784,-23.70558],[-47.35731,-23.70319],[-47.35973,-23.70076],[-47.36197,-23.7002],[-47.36337,-23.69953],[-47.3637,-23.6981],[-47.3635,-23.69499],[-47.36465,-23.69251],[-47.36753,-23.68826],[-47.37219,-23.68699],[-47.37452,-23.68722],[-47.3764,-23.68641],[-47.37794,-23.68191],[-47.37914,-23.67827],[-47.3818,-23.67638],[-47.38141,-23.67399],[-47.37801,-23.67326],[-47.37537,-23.67136],[-47.37477,-23.6691],[-47.37474,-23.66748],[-47.3733,-23.66568],[-47.3707,-23.66423],[-47.36893,-23.66348],[-47.36772,-23.66305],[-47.3654,-23.66276],[-47.36453,-23.6618],[-47.36437,-23.66041],[-47.36491,-23.65891],[-47.36643,-23.65727],[-47.3673,-23.65466],[-47.36677,-23.6526],[-47.36673,-23.65078],[-47.36802,-23.64804],[-47.36998,-23.64711],[-47.3703,-23.64554],[-47.37148,-23.64455],[-47.37452,-23.64509],[-47.37643,-23.64545],[-47.37852,-23.64458],[-47.38047,-23.64344],[-47.38191,-23.64485],[-47.38349,-23.64551],[-47.38539,-23.64568],[-47.38855,-23.64531],[-47.38996,-23.64529],[-47.39135,-23.64416],[-47.39331,-23.64361],[-47.39521,-23.64345],[-47.39686,-23.64148],[-47.39803,-23.63998],[-47.39871,-23.63834],[-47.39952,-23.63671],[-47.4008,-23.63702],[-47.40198,-23.63635],[-47.40254,-23.63602],[-47.40301,-23.63504],[-47.40321,-23.63426],[-47.40247,-23.63245],[-47.4028,-23.63083],[-47.40418,-23.62938],[-47.40379,-23.62757],[-47.40364,-23.62631],[-47.40572,-23.62498],[-47.40903,-23.62461],[-47.41205,-23.62424],[-47.41391,-23.62227],[-47.41408,-23.6198],[-47.413,-23.61856],[-47.41144,-23.61807],[-47.41039,-23.61843],[-47.4076,-23.61964],[-47.40513,-23.61929],[-47.40371,-23.61853],[-47.40263,-23.61758],[-47.40247,-23.61616],[-47.40045,-23.61372],[-47.39764,-23.61409],[-47.39664,-23.61247],[-47.39699,-23.61241],[-47.39717,-23.61254],[-47.39755,-23.61282],[-47.39756,-23.61282],[-47.39757,-23.61283],[-47.39606,-23.60975],[-47.39342,-23.60725],[-47.39292,-23.60647],[-47.39177,-23.60463],[-47.39173,-23.60223],[-47.39156,-23.60067],[-47.39036,-23.59919],[-47.38701,-23.59716],[-47.38515,-23.59478],[-47.38387,-23.5899],[-47.38245,-23.58912],[-47.37903,-23.58787],[-47.37569,-23.58816],[-47.37564,-23.5882],[-47.37497,-23.58826],[-47.37299,-23.58983],[-47.37077,-23.58979],[-47.36727,-23.58803],[-47.36266,-23.58684],[-47.35954,-23.58443],[-47.35591,-23.5829],[-47.35277,-23.58203],[-47.35112,-23.58144],[-47.34819,-23.58097],[-47.34669,-23.58108],[-47.34111,-23.58144],[-47.33899,-23.58035],[-47.3386,-23.57937],[-47.33837,-23.57358],[-47.33592,-23.57303],[-47.33197,-23.57343],[-47.33088,-23.57281],[-47.32973,-23.57096],[-47.32925,-23.56922],[-47.32913,-23.56811],[-47.32879,-23.5674],[-47.3287,-23.56652],[-47.32816,-23.56512],[-47.32809,-23.56466],[-47.32788,-23.56305],[-47.32774,-23.56305],[-47.3277,-23.56279],[-47.3268,-23.56156],[-47.32553,-23.56129],[-47.32514,-23.56146],[-47.32424,-23.56127],[-47.32258,-23.56147],[-47.32082,-23.56195],[-47.31965,-23.56197],[-47.31719,-23.56092],[-47.3154,-23.5596],[-47.31425,-23.56051],[-47.3125,-23.56117],[-47.31056,-23.5621],[-47.3086,-23.56195],[-47.30811,-23.56214],[-47.30694,-23.56215],[-47.30519,-23.56272],[-47.30431,-23.5633],[-47.30335,-23.56333],[-47.30104,-23.56168],[-47.29873,-23.56155],[-47.29659,-23.56186],[-47.29649,-23.56186],[-47.29418,-23.56141],[-47.29374,-23.56157],[-47.29353,-23.56154],[-47.29255,-23.56192],[-47.29196,-23.56284],[-47.28754,-23.56087],[-47.2872,-23.56107],[-47.28693,-23.56093],[-47.28451,-23.56232],[-47.28306,-23.56342],[-47.28162,-23.56423],[-47.28012,-23.56387],[-47.27871,-23.56336],[-47.27761,-23.56184],[-47.27614,-23.5604],[-47.27522,-23.55953],[-47.27484,-23.55903],[-47.27389,-23.55783],[-47.27248,-23.55646],[-47.27126,-23.55632],[-47.27114,-23.55646],[-47.27079,-23.5564],[-47.26983,-23.55747],[-47.26863,-23.55921],[-47.26703,-23.56089],[-47.26519,-23.56318],[-47.26424,-23.56507],[-47.26224,-23.56759],[-47.26025,-23.56963],[-47.25871,-23.56973],[-47.2576,-23.56998],[-47.25682,-23.57013],[-47.25472,-23.5695],[-47.25467,-23.56949],[-47.25408,-23.56955],[-47.25358,-23.56809],[-47.25354,-23.56561],[-47.25254,-23.56472],[-47.25113,-23.56301],[-47.25004,-23.56152],[-47.24977,-23.56017],[-47.25041,-23.55963],[-47.24942,-23.55889],[-47.24688,-23.5587],[-47.24427,-23.55859],[-47.24196,-23.55749],[-47.24116,-23.55848],[-47.24077,-23.55977],[-47.23981,-23.56091],[-47.23875,-23.56108],[-47.23546,-23.55947],[-47.23363,-23.55776],[-47.23215,-23.55726],[-47.22996,-23.55804],[-47.22783,-23.55792],[-47.22579,-23.55795],[-47.22321,-23.55815],[-47.22257,-23.55922],[-47.22285,-23.56102],[-47.22451,-23.5625],[-47.22511,-23.56438],[-47.22514,-23.56588],[-47.224,-23.5665],[-47.22064,-23.56595],[-47.21744,-23.56494],[-47.21636,-23.56397],[-47.21472,-23.56385],[-47.21335,-23.56454],[-47.21338,-23.56627],[-47.21317,-23.56869],[-47.21197,-23.57044],[-47.20993,-23.57061],[-47.20855,-23.57086],[-47.20791,-23.572],[-47.20655,-23.57352],[-47.20574,-23.57391],[-47.20452,-23.57431],[-47.20182,-23.57397],[-47.19976,-23.57347],[-47.19876,-23.57213],[-47.1959,-23.57194],[-47.19547,-23.5709],[-47.19463,-23.56955],[-47.19437,-23.56843],[-47.19533,-23.56728],[-47.19555,-23.56577],[-47.19431,-23.56489],[-47.19211,-23.56507],[-47.19064,-23.56562],[-47.1886,-23.56535],[-47.18745,-23.56499],[-47.18675,-23.56274],[-47.18674,-23.56161],[-47.18529,-23.56126],[-47.18349,-23.56128],[-47.18161,-23.56131],[-47.17982,-23.56133],[-47.17834,-23.56075],[-47.17709,-23.55987],[-47.17649,-23.55814],[-47.17622,-23.55649],[-47.17578,-23.55477],[-47.17535,-23.55312],[-47.1733,-23.55277],[-47.17208,-23.55294],[-47.17086,-23.55371],[-47.1699,-23.55447],[-47.16986,-23.55726],[-47.17029,-23.55838],[-47.17196,-23.56084]]]}}]}