{"type":"FeatureCollection","name":"municipios","crs":{"type":"name","properties":{"name":"urn:ogc:def:crs:OGC:1.3:CRS84"}},"xy_coordinate_resolution":1e-05,"bbox":[-47.61828,-24.02354,-46.80757,-23.41166],"features":[{"type":"Feature","properties":{"nome":"Ibiúna","codigo_ibg":"3519709","populacao":71217,"pib":770429,"area_apa_km2":582.58,"pct_apa":62.1,"label_lat":-23.72022,"label_lon":-47.18808},"bbox":[-47.38813,-24.02354,-46.98563,-23.59654],"geometry":{"type":"Polygon","coordinates":[[[-47.26895,-23.6144],[-47.24975,-23.61979],[-47.22893,-23.61609],[-47.21818,-23.61781],[-47.20526,-23.61688],[-47.19529,-23.61831],[-47.19178,-23.62192],[-47.18855,-23.62624],[-47.18898,-23.62993],[-47.17872,-23.64091],[-47.16494,-23.64108],[-47.15631,-23.6379],[-47.14924,-23.64073],[-47.13852,-23.639],[-47.13331,-23.64224],[-47.12682,-23.64244],[-47.12151,-23.64835],[-47.11463,-23.6454],[-47.10884,-23.65135],[-47.10254,-23.6467],[-47.09996,-23.64289],[-47.09346,-23.64423],[-47.09292,-23.64946],[-47.08125,-23.65278],[-47.08458,-23.66667],[-47.07652,-23.6729],[-47.07598,-23.68023],[-47.0617,-23.68198],[-47.05898,-23.70147],[-47.062,-23.70814],[-47.05584,-23.71802],[-47.05211,-23.71991],[-47.04706,-23.73421],[-47.0328,-23.73697],[-47.03582,-23.75311],[-47.0342,-23.75741],[-47.02814,-23.75687],[-47.03153,-23.76882],[-47.02284,-23.77457],[-47.02064,-23.78513],[-47.01407,-23.79166],[-47.00788,-23.7913],[-46.99682,-23.80208],[-46.98885,-23.80113],[-46.98563,-23.79985],[-46.9861,-23.80812],[-47.006,-23.81489],[-47.01465,-23.81383],[-47.01723,-23.8209],[-47.01273,-23.82469],[-47.01422,-23.83478],[-47.02156,-23.83569],[-47.02833,-23.8457],[-47.03785,-23.83479],[-47.05065,-23.8437],[-47.05912,-23.84249],[-47.06559,-23.83748],[-47.06544,-23.843],[-47.07219,-23.84136],[-47.08451,-23.84478],[-47.10667,-23.84798],[-47.10987,-23.84193],[-47.11591,-23.83992],[-47.1176,-23.84926],[-47.12927,-23.86191],[-47.13267,-23.87284],[-47.12618,-23.87397],[-47.12783,-23.87734],[-47.13276,-23.87875],[-47.13203,-23.88396],[-47.13922,-23.88944],[-47.13447,-23.89387],[-47.1438,-23.90095],[-47.13758,-23.90276],[-47.13834,-23.90498],[-47.1557,-23.92077],[-47.15851,-23.93346],[-47.17036,-23.93415],[-47.17529,-23.93132],[-47.17898,-23.93686],[-47.18228,-23.92983],[-47.19088,-23.92761],[-47.19135,-23.9324],[-47.18853,-23.9391],[-47.19342,-23.94129],[-47.19999,-23.93866],[-47.20125,-23.94624],[-47.19327,-23.95293],[-47.19509,-23.9577],[-47.20277,-23.95888],[-47.20806,-23.96437],[-47.20421,-23.97092],[-47.20037,-23.96842],[-47.20063,-23.97289],[-47.1935,-23.97421],[-47.19415,-23.98157],[-47.18825,-23.99059],[-47.19451,-23.99177],[-47.19949,-24.0001],[-47.20654,-24.00286],[-47.21025,-24.00094],[-47.22017,-24.01015],[-47.21826,-24.01244],[-47.22473,-24.01447],[-47.23013,-24.0119],[-47.23305,-24.01689],[-47.23803,-24.01581],[-47.24479,-24.02193],[-47.24988,-24.02015],[-47.25396,-24.02354],[-47.25642,-24.02039],[-47.25247,-24.00784],[-47.26129,-24.00488],[-47.2639,-24.00829],[-47.2601,-24.01354],[-47.27163,-24.01709],[-47.27719,-24.01067],[-47.28198,-24.01455],[-47.2857,-24.01352],[-47.28556,-24.0059],[-47.30137,-24.01115],[-47.3099,-24.00849],[-47.31593,-24.01656],[-47.32468,-24.01702],[-47.32811,-24.01408],[-47.33252,-24.01761],[-47.33397,-24.01223],[-47.33931,-24.01262],[-47.35475,-24.0213],[-47.36333,-24.01276],[-47.36216,-24.00675],[-47.37188,-24.0087],[-47.36867,-23.99792],[-47.37765,-23.99845],[-47.3855,-23.99492],[-47.38232,-23.98938],[-47.38813,-23.98238],[-47.38263,-23.97466],[-47.38242,-23.96015],[-47.37434,-23.954],[-47.37731,-23.9401],[-47.37117,-23.93201],[-47.36782,-23.91486],[-47.3644,-23.91347],[-47.37626,-23.90426],[-47.37496,-23.89678],[-47.37088,-23.8872],[-47.35703,-23.87868],[-47.35069,-23.87163],[-47.34594,-23.8722],[-47.31999,-23.8576],[-47.3142,-23.86064],[-47.31052,-23.85901],[-47.30736,-23.85263],[-47.29681,-23.85347],[-47.29201,-23.84919],[-47.29164,-23.8411],[-47.28274,-23.83772],[-47.27836,-23.83682],[-47.25973,-23.83594],[-47.25296,-23.82841],[-47.24852,-23.82723],[-47.25122,-23.82212],[-47.26913,-23.81579],[-47.27381,-23.81754],[-47.27544,-23.81057],[-47.28108,-23.80391],[-47.30069,-23.80709],[-47.31657,-23.79232],[-47.31385,-23.78836],[-47.30114,-23.78679],[-47.30403,-23.77329],[-47.3038,-23.77084],[-47.30133,-23.76456],[-47.30421,-23.7625],[-47.2966,-23.75393],[-47.29843,-23.74789],[-47.31065,-23.73141],[-47.31958,-23.73106],[-47.31982,-23.72389],[-47.32405,-23.7204],[-47.32724,-23.71122],[-47.33942,-23.71157],[-47.34361,-23.70656],[-47.34872,-23.69669],[-47.35662,-23.67141],[-47.3568,-23.65425],[-47.36777,-23.63858],[-47.36797,-23.63328],[-47.3615,-23.62889],[-47.35957,-23.62307],[-47.33554,-23.6108],[-47.32619,-23.62325],[-47.30642,-23.61956],[-47.29886,-23.61298],[-47.29639,-23.60317],[-47.27682,-23.5967],[-47.27583,-23.59654],[-47.26983,-23.60058],[-47.26895,-23.6144]]]}},{"type":"Feature","properties":{"nome":"São Roque","codigo_ibg":"3550605","populacao":78821,"pib":1423691,"area_apa_km2":107.93,"pct_apa":11.5,"label_lat":-23.6051,"label_lon":-47.11612},"bbox":[-47.20858,-23.65312,-46.99054,-23.41166],"geometry":{"type":"Polygon","coordinates":[[[-47.13819,-23.41166],[-47.13963,-23.4168],[-47.12611,-23.42506],[-47.13021,-23.429],[-47.12952,-23.43208],[-47.13448,-23.43323],[-47.13892,-23.44016],[-47.13617,-23.44272],[-47.14027,-23.44702],[-47.13916,-23.45614],[-47.12614,-23.46254],[-47.12063,-23.48074],[-47.11281,-23.48675],[-47.10219,-23.48176],[-47.08465,-23.48291],[-47.08042,-23.47529],[-47.06754,-23.47701],[-47.06679,-23.48328],[-47.052,-23.48838],[-47.0448,-23.50865],[-47.04326,-23.51639],[-47.02563,-23.51648],[-46.99451,-23.50668],[-46.99669,-23.52247],[-46.99054,-23.53032],[-47.01215,-23.53607],[-47.01182,-23.5494],[-47.00579,-23.5539],[-47.01504,-23.55955],[-47.02004,-23.5674],[-47.02935,-23.5677],[-47.02431,-23.57936],[-47.03103,-23.58226],[-47.03072,-23.58847],[-47.03688,-23.59863],[-47.04176,-23.61131],[-47.04894,-23.61835],[-47.05411,-23.6168],[-47.05644,-23.62047],[-47.05888,-23.62803],[-47.06087,-23.64209],[-47.06668,-23.6458],[-47.07247,-23.64507],[-47.07358,-23.65165],[-47.07826,-23.65312],[-47.08125,-23.65278],[-47.09292,-23.64946],[-47.09346,-23.64423],[-47.09996,-23.64289],[-47.10254,-23.6467],[-47.10884,-23.65135],[-47.11463,-23.6454],[-47.12151,-23.64835],[-47.12682,-23.64244],[-47.13331,-23.64224],[-47.13852,-23.639],[-47.14924,-23.64073],[-47.15631,-23.6379],[-47.16494,-23.64108],[-47.17872,-23.64091],[-47.18898,-23.62993],[-47.18855,-23.62624],[-47.19178,-23.62192],[-47.19529,-23.61831],[-47.20526,-23.61688],[-47.20858,-23.61237],[-47.20193,-23.60621],[-47.18302,-23.60188],[-47.18501,-23.59214],[-47.17677,-23.58167],[-47.17324,-23.56948],[-47.16934,-23.56047],[-47.17148,-23.54978],[-47.15853,-23.54026],[-47.15788,-23.53451],[-47.16572,-23.52447],[-47.16563,-23.52376],[-47.1628,-23.51937],[-47.16934,-23.50345],[-47.17359,-23.50127],[-47.18412,-23.49824],[-47.1828,-23.49126],[-47.18694,-23.48213],[-47.17605,-23.46158],[-47.17533,-23.44802],[-47.17708,-23.44345],[-47.18592,-23.44082],[-47.18909,-23.43388],[-47.18671,-23.42074],[-47.18763,-23.41891],[-47.15987,-23.41743],[-47.15459,-23.41389],[-47.14308,-23.41387],[-47.13819,-23.41166]]]}},{"type":"Feature","properties":{"nome":"Cotia","codigo_ibg":"3513009","populacao":201150,"pib":6212597,"area_apa_km2":80.9,"pct_apa":8.6,"label_lat":-23.70756,"label_lon":-47.02965},"bbox":[-47.08458,-23.80208,-46.80757,-23.5628],"geometry":{"type":"Polygon","coordinates":[[[-46.9026,-23.56877],[-46.88396,-23.56939],[-46.87581,-23.56564],[-46.87529,-23.57096],[-46.87118,-23.57197],[-46.86427,-23.57785],[-46.85115,-23.58183],[-46.84354,-23.58281],[-46.84343,-23.57743],[-46.83421,-23.57669],[-46.82254,-23.5842],[-46.81686,-23.58199],[-46.81284,-23.59324],[-46.81745,-23.60032],[-46.80757,-23.60895],[-46.83908,-23.6268],[-46.84734,-23.61992],[-46.8538,-23.61915],[-46.85598,-23.61204],[-46.86851,-23.62104],[-46.88396,-23.6192],[-46.8875,-23.62428],[-46.90608,-23.63026],[-46.90854,-23.64254],[-46.91687,-23.65376],[-46.91718,-23.65984],[-46.90334,-23.66317],[-46.90158,-23.66884],[-46.88661,-23.66774],[-46.89704,-23.67731],[-46.89512,-23.68013],[-46.90538,-23.71451],[-46.91503,-23.72488],[-46.92137,-23.72604],[-46.92252,-23.73117],[-46.93153,-23.733],[-46.93351,-23.73862],[-46.92711,-23.74916],[-46.93047,-23.75291],[-46.92888,-23.75805],[-46.93549,-23.76545],[-46.93409,-23.77181],[-46.93776,-23.77631],[-46.941,-23.78625],[-46.94842,-23.78551],[-46.95017,-23.79196],[-46.95767,-23.79191],[-46.96553,-23.78333],[-46.96737,-23.77433],[-46.9817,-23.7834],[-46.98072,-23.79447],[-46.98885,-23.80113],[-46.99682,-23.80208],[-47.00788,-23.7913],[-47.01407,-23.79166],[-47.02064,-23.78513],[-47.02284,-23.77457],[-47.03153,-23.76882],[-47.02814,-23.75687],[-47.0342,-23.75741],[-47.03582,-23.75311],[-47.0328,-23.73697],[-47.04706,-23.73421],[-47.05211,-23.71991],[-47.05584,-23.71802],[-47.062,-23.70814],[-47.05898,-23.70147],[-47.0617,-23.68198],[-47.07598,-23.68023],[-47.07652,-23.6729],[-47.08458,-23.66667],[-47.08125,-23.65278],[-47.07826,-23.65312],[-47.07358,-23.65165],[-47.07247,-23.64507],[-47.06668,-23.6458],[-47.06087,-23.64209],[-47.05888,-23.62803],[-47.04486,-23.63111],[-47.04323,-23.63627],[-47.03352,-23.64315],[-47.02337,-23.64384],[-47.01711,-23.65642],[-47.01202,-23.65556],[-47.00401,-23.66192],[-46.99588,-23.66047],[-46.99515,-23.66952],[-46.98794,-23.66485],[-46.98649,-23.65326],[-46.99113,-23.64489],[-46.98693,-23.63246],[-46.99043,-23.60846],[-46.98165,-23.60155],[-46.96099,-23.60234],[-46.95646,-23.59079],[-46.94842,-23.58634],[-46.93982,-23.57141],[-46.92897,-23.5633],[-46.91093,-23.5628],[-46.9026,-23.56877]]]}},{"type":"Feature","properties":{"nome":"Mairinque","codigo_ibg":"3528403","populacao":43223,"pib":897099,"area_apa_km2":51.34,"pct_apa":5.5,"label_lat":-23.58689,"label_lon":-47.22815},"bbox":[-47.32668,-23.61979,-47.15788,-23.4169],"geometry":{"type":"Polygon","coordinates":[[[-47.29386,-23.42602],[-47.28494,-23.4311],[-47.27432,-23.42837],[-47.2648,-23.42138],[-47.25716,-23.4238],[-47.2568,-23.4237],[-47.25569,-23.42022],[-47.24903,-23.41961],[-47.24667,-23.419],[-47.23042,-23.41838],[-47.21205,-23.41706],[-47.19627,-23.42109],[-47.19501,-23.41773],[-47.18763,-23.41891],[-47.18671,-23.42074],[-47.18909,-23.43388],[-47.18592,-23.44082],[-47.17708,-23.44345],[-47.17533,-23.44802],[-47.17605,-23.46158],[-47.18694,-23.48213],[-47.1828,-23.49126],[-47.18412,-23.49824],[-47.17359,-23.50127],[-47.16934,-23.50345],[-47.1628,-23.51937],[-47.16563,-23.52376],[-47.16572,-23.52447],[-47.15788,-23.53451],[-47.15853,-23.54026],[-47.17148,-23.54978],[-47.16934,-23.56047],[-47.17324,-23.56948],[-47.17677,-23.58167],[-47.18501,-23.59214],[-47.18302,-23.60188],[-47.20193,-23.60621],[-47.20858,-23.61237],[-47.20526,-23.61688],[-47.21818,-23.61781],[-47.22893,-23.61609],[-47.24975,-23.61979],[-47.26895,-23.6144],[-47.26983,-23.60058],[-47.27583,-23.59654],[-47.27682,-23.5967],[-47.27405,-23.58158],[-47.26273,-23.56913],[-47.26142,-23.56873],[-47.25393,-23.56846],[-47.25203,-23.55796],[-47.24744,-23.55678],[-47.24034,-23.56112],[-47.23485,-23.55688],[-47.23467,-23.54833],[-47.22965,-23.5433],[-47.23732,-23.53293],[-47.23287,-23.5296],[-47.23321,-23.52073],[-47.22947,-23.51473],[-47.23768,-23.50775],[-47.24375,-23.50435],[-47.25247,-23.50789],[-47.25599,-23.50168],[-47.27099,-23.49401],[-47.27539,-23.48608],[-47.27221,-23.47797],[-47.2872,-23.47727],[-47.28964,-23.47381],[-47.29892,-23.4776],[-47.29971,-23.46944],[-47.30995,-23.47184],[-47.31383,-23.46525],[-47.31656,-23.46344],[-47.32341,-23.45468],[-47.32505,-23.44158],[-47.32668,-23.43897],[-47.32229,-23.43473],[-47.31778,-23.43573],[-47.31472,-23.43447],[-47.31693,-23.43048],[-47.30029,-23.4169],[-47.29386,-23.42602]]]}},{"type":"Feature","properties":{"nome":"Votorantim","codigo_ibg":"3557006","populacao":108809,"pib":2091438,"area_apa_km2":45.67,"pct_apa":4.9,"label_lat":-23.59677,"label_lon":-47.34545},"bbox":[-47.51811,-23.64953,-47.29639,-23.51783],"geometry":{"type":"Polygon","coordinates":[[[-47.37268,-23.51783],[-47.37047,-23.52236],[-47.36548,-23.52243],[-47.36183,-23.53038],[-47.36637,-23.53744],[-47.3616,-23.53913],[-47.36129,-23.54704],[-47.35717,-23.5493],[-47.3577,-23.56153],[-47.34503,-23.55992],[-47.34199,-23.5562],[-47.30824,-23.56069],[-47.31288,-23.58071],[-47.30955,-23.5854],[-47.30953,-23.5968],[-47.29984,-23.59795],[-47.29639,-23.60317],[-47.29886,-23.61298],[-47.30642,-23.61956],[-47.32619,-23.62325],[-47.33554,-23.6108],[-47.35957,-23.62307],[-47.3615,-23.62889],[-47.36797,-23.63328],[-47.37976,-23.63152],[-47.39157,-23.63256],[-47.40469,-23.62056],[-47.41733,-23.61972],[-47.42411,-23.62384],[-47.44093,-23.62071],[-47.45467,-23.62557],[-47.46245,-23.63152],[-47.46355,-23.63816],[-47.47046,-23.63664],[-47.47221,-23.64199],[-47.47677,-23.64115],[-47.49371,-23.64953],[-47.47666,-23.6302],[-47.46642,-23.62398],[-47.47382,-23.61555],[-47.48265,-23.60807],[-47.49327,-23.60633],[-47.49248,-23.58235],[-47.49232,-23.5627],[-47.49306,-23.55825],[-47.50132,-23.55589],[-47.50332,-23.54588],[-47.51811,-23.54299],[-47.49981,-23.53373],[-47.4977,-23.53941],[-47.48937,-23.53913],[-47.48262,-23.54584],[-47.47696,-23.54811],[-47.46589,-23.54446],[-47.46055,-23.53012],[-47.4504,-23.53072],[-47.44367,-23.52187],[-47.43751,-23.52489],[-47.4256,-23.52242],[-47.40493,-23.52312],[-47.39771,-23.52625],[-47.39419,-23.52222],[-47.3779,-23.52171],[-47.37268,-23.51783]]]}},{"type":"Feature","properties":{"nome":"Vargem Grande Paulista","codigo_ibg":"3556453","populacao":42997,"pib":750868,"area_apa_km2":32.33,"pct_apa":3.4,"label_lat":-23.62567,"label_lon":-47.02725},"bbox":[-47.05888,-23.66952,-46.98165,-23.57952],"geometry":{"type":"Polygon","coordinates":[[[-46.99644,-23.57952],[-46.99843,-23.59355],[-46.99015,-23.59767],[-46.98922,-23.60264],[-46.98165,-23.60155],[-46.99043,-23.60846],[-46.98693,-23.63246],[-46.99113,-23.64489],[-46.98649,-23.65326],[-46.98794,-23.66485],[-46.99515,-23.66952],[-46.99588,-23.66047],[-47.00401,-23.66192],[-47.01202,-23.65556],[-47.01711,-23.65642],[-47.02337,-23.64384],[-47.03352,-23.64315],[-47.04323,-23.63627],[-47.04486,-23.63111],[-47.05888,-23.62803],[-47.05644,-23.62047],[-47.05411,-23.6168],[-47.04894,-23.61835],[-47.04176,-23.61131],[-47.03688,-23.59863],[-47.03072,-23.58847],[-47.03103,-23.58226],[-47.02203,-23.5823],[-47.01993,-23.58562],[-47.01421,-23.58062],[-46.99644,-23.57952]]]}},{"type":"Feature","properties":{"nome":"Piedade","codigo_ibg":"3537800","populacao":52143,"pib":589367,"area_apa_km2":20.21,"pct_apa":2.2,"label_lat":-23.68517,"label_lon":-47.36457},"bbox":[-47.61828,-23.98238,-47.24852,-23.61972],"geometry":{"type":"Polygon","coordinates":[[[-47.44093,-23.62071],[-47.42411,-23.62384],[-47.41733,-23.61972],[-47.40469,-23.62056],[-47.39157,-23.63256],[-47.37976,-23.63152],[-47.36797,-23.63328],[-47.36777,-23.63858],[-47.3568,-23.65425],[-47.35662,-23.67141],[-47.34872,-23.69669],[-47.34361,-23.70656],[-47.33942,-23.71157],[-47.32724,-23.71122],[-47.32405,-23.7204],[-47.31982,-23.72389],[-47.31958,-23.73106],[-47.31065,-23.73141],[-47.29843,-23.74789],[-47.2966,-23.75393],[-47.30421,-23.7625],[-47.30133,-23.76456],[-47.3038,-23.77084],[-47.30403,-23.77329],[-47.30114,-23.78679],[-47.31385,-23.78836],[-47.31657,-23.79232],[-47.30069,-23.80709],[-47.28108,-23.80391],[-47.27544,-23.81057],[-47.27381,-23.81754],[-47.26913,-23.81579],[-47.25122,-23.82212],[-47.24852,-23.82723],[-47.25296,-23.82841],[-47.25973,-23.83594],[-47.27836,-23.83682],[-47.28274,-23.83772],[-47.29164,-23.8411],[-47.29201,-23.84919],[-47.29681,-23.85347],[-47.30736,-23.85263],[-47.31052,-23.85901],[-47.3142,-23.86064],[-47.31999,-23.8576],[-47.34594,-23.8722],[-47.35069,-23.87163],[-47.35703,-23.87868],[-47.37088,-23.8872],[-47.37496,-23.89678],[-47.37626,-23.90426],[-47.3644,-23.91347],[-47.36782,-23.91486],[-47.37117,-23.93201],[-47.37731,-23.9401],[-47.37434,-23.954],[-47.38242,-23.96015],[-47.38263,-23.97466],[-47.38813,-23.98238],[-47.41391,-23.9627],[-47.42061,-23.96129],[-47.43177,-23.96693],[-47.4338,-23.95807],[-47.43948,-23.95428],[-47.42348,-23.94252],[-47.43549,-23.93124],[-47.43287,-23.92536],[-47.43721,-23.91402],[-47.43261,-23.90276],[-47.43938,-23.9005],[-47.45593,-23.9045],[-47.45801,-23.9008],[-47.45358,-23.89514],[-47.45605,-23.8929],[-47.47143,-23.90038],[-47.48501,-23.89388],[-47.49952,-23.89723],[-47.51073,-23.89149],[-47.51418,-23.8978],[-47.52226,-23.89617],[-47.52342,-23.89152],[-47.52858,-23.89153],[-47.53294,-23.87335],[-47.54022,-23.87171],[-47.54042,-23.86716],[-47.55198,-23.86939],[-47.55437,-23.86641],[-47.55837,-23.86987],[-47.57363,-23.86281],[-47.57125,-23.85499],[-47.56898,-23.84944],[-47.57139,-23.84498],[-47.60371,-23.83779],[-47.60368,-23.82134],[-47.60104,-23.81359],[-47.59332,-23.81297],[-47.58385,-23.80369],[-47.58115,-23.79526],[-47.59753,-23.7926],[-47.60728,-23.77197],[-47.61828,-23.75625],[-47.57675,-23.7559],[-47.57452,-23.75277],[-47.58471,-23.74016],[-47.58819,-23.7289],[-47.57971,-23.72322],[-47.57797,-23.71632],[-47.57447,-23.7133],[-47.56734,-23.71524],[-47.55926,-23.71217],[-47.55706,-23.71573],[-47.55961,-23.71863],[-47.55515,-23.71841],[-47.55248,-23.72213],[-47.5442,-23.7197],[-47.54085,-23.72183],[-47.53496,-23.71558],[-47.52466,-23.7146],[-47.52526,-23.70182],[-47.51431,-23.70496],[-47.51196,-23.70016],[-47.49855,-23.69437],[-47.4917,-23.68446],[-47.48687,-23.68415],[-47.48844,-23.67099],[-47.49666,-23.65789],[-47.49371,-23.64953],[-47.47677,-23.64115],[-47.47221,-23.64199],[-47.47046,-23.63664],[-47.46355,-23.63816],[-47.46245,-23.63152],[-47.45467,-23.62557],[-47.44093,-23.62071]]]}},{"type":"Feature","properties":{"nome":"Alumínio","codigo_ibg":"3501152","populacao":16839,"pib":1790694,"area_apa_km2":16.99,"pct_apa":1.8,"label_lat":-23.57489,"label_lon":-47.28986},"bbox":[-47.32409,-23.60317,-47.22947,-23.46344],"geometry":{"type":"Polygon","coordinates":[[[-47.31383,-23.46525],[-47.30995,-23.47184],[-47.29971,-23.46944],[-47.29892,-23.4776],[-47.28964,-23.47381],[-47.2872,-23.47727],[-47.27221,-23.47797],[-47.27539,-23.48608],[-47.27099,-23.49401],[-47.25599,-23.50168],[-47.25247,-23.50789],[-47.24375,-23.50435],[-47.23768,-23.50775],[-47.22947,-23.51473],[-47.23321,-23.52073],[-47.23287,-23.5296],[-47.23732,-23.53293],[-47.22965,-23.5433],[-47.23467,-23.54833],[-47.23485,-23.55688],[-47.24034,-23.56112],[-47.24744,-23.55678],[-47.25203,-23.55796],[-47.25393,-23.56846],[-47.26142,-23.56873],[-47.26273,-23.56913],[-47.27405,-23.58158],[-47.27682,-23.5967],[-47.29639,-23.60317],[-47.29984,-23.59795],[-47.30953,-23.5968],[-47.30955,-23.5854],[-47.31288,-23.58071],[-47.30824,-23.56069],[-47.30411,-23.53445],[-47.30915,-23.52852],[-47.30305,-23.5236],[-47.30341,-23.51986],[-47.30904,-23.51796],[-47.3093,-23.51478],[-47.32409,-23.51306],[-47.32255,-23.48824],[-47.31759,-23.4822],[-47.32009,-23.46883],[-47.31656,-23.46344],[-47.31383,-23.46525]]]}}]}