{"type":"FeatureCollection","name":"sp_estado","crs":{"type":"name","properties":{"name":"urn:ogc:def:crs:OGC:1.3:CRS84"}},"xy_coordinate_resolution":1e-05,"bbox":[-53.10819,-25.31089,-44.16175,-19.77918],"features":[{"type":"Feature","properties":{"nome":"São Paulo"},"bbox":[-53.10819,-25.31089,-44.16175,-19.77918],"geometry":{"type":"MultiPolygon","coordinates":[[[[-46.14287,-23.86009],[-46.1241,-23.85939],[-46.13946,-23.87436],[-46.13805,-23.89085],[-46.15144,-23.89662],[-46.14988,-23.9059],[-46.16035,-23.90576],[-46.17926,-23.92388],[-46.17764,-23.93839],[-46.16788,-23.93677],[-46.16597,-23.94433],[-46.18682,-23.9719],[-46.18138,-23.99001],[-46.18906,-23.98906],[-46.20286,-23.99982],[-46.20681,-23.99779],[-46.20185,-23.99111],[-46.21136,-23.98518],[-46.24407,-23.99088],[-46.26328,-24.00261],[-46.2632,-24.01383],[-46.27373,-24.0152],[-46.27763,-24.03617],[-46.28703,-24.04396],[-46.28375,-24.02582],[-46.29435,-24.0161],[-46.31116,-24.02755],[-46.31135,-24.02088],[-46.32369,-24.02174],[-46.32112,-23.99883],[-46.30497,-23.99228],[-46.3126,-23.98071],[-46.34524,-23.96843],[-46.36718,-23.97135],[-46.36831,-23.98064],[-46.37415,-23.96873],[-46.38423,-23.96987],[-46.38788,-23.9751],[-46.38049,-23.97575],[-46.37462,-23.98576],[-46.39205,-23.99602],[-46.39159,-24.00994],[-46.3832,-24.01719],[-46.3895,-24.01608],[-46.39892,-24.03308],[-46.39912,-24.01778],[-46.4166,-24.01327],[-46.4978,-24.03985],[-46.70922,-24.14344],[-46.80529,-24.20028],[-46.82298,-24.2054],[-46.94041,-24.28004],[-47.00019,-24.32928],[-47.0002,-24.35456],[-47.01822,-24.37537],[-47.01606,-24.38629],[-47.00089,-24.3968],[-47.00924,-24.41357],[-47.01434,-24.41087],[-47.02874,-24.42583],[-47.07751,-24.44283],[-47.13746,-24.48581],[-47.18633,-24.52421],[-47.18689,-24.53311],[-47.22758,-24.55818],[-47.22633,-24.56933],[-47.25047,-24.5754],[-47.40312,-24.66224],[-47.40116,-24.66749],[-47.43174,-24.68387],[-47.44157,-24.69797],[-47.53158,-24.73808],[-47.61629,-24.7917],[-47.77185,-24.91265],[-47.84147,-24.9745],[-47.87307,-25.01186],[-47.88769,-25.05316],[-47.90946,-25.05288],[-47.8943,-25.10639],[-47.90791,-25.11769],[-47.91843,-25.14521],[-47.91252,-25.15805],[-47.94285,-25.17308],[-48.02857,-25.24231],[-48.09852,-25.31089],[-48.09787,-25.29917],[-48.0858,-25.28515],[-48.02308,-25.23047],[-48.02762,-25.2213],[-48.04118,-25.21981],[-48.0466,-25.22614],[-48.0569,-25.21788],[-48.06156,-25.23948],[-48.10065,-25.24239],[-48.1144,-25.25019],[-48.15076,-25.22762],[-48.16171,-25.20919],[-48.18672,-25.1984],[-48.19288,-25.18936],[-48.17791,-25.18155],[-48.16724,-25.1674],[-48.16824,-25.15604],[-48.1564,-25.14414],[-48.18116,-25.13333],[-48.21171,-25.08494],[-48.21505,-25.04217],[-48.20913,-25.02825],[-48.23107,-25.02028],[-48.22288,-25.00862],[-48.23208,-25.00638],[-48.22899,-25.00084],[-48.2512,-24.97825],[-48.25861,-24.98658],[-48.25442,-24.99602],[-48.26285,-24.9923],[-48.2691,-24.99703],[-48.27783,-25.0326],[-48.28455,-25.03488],[-48.29234,-25.02392],[-48.29889,-25.0239],[-48.31729,-25.05604],[-48.33319,-25.07007],[-48.33323,-25.05706],[-48.32387,-25.05388],[-48.32366,-25.03624],[-48.35075,-25.03598],[-48.35427,-25.01946],[-48.37944,-24.99539],[-48.41059,-24.97962],[-48.41655,-24.98886],[-48.43444,-24.99104],[-48.47357,-25.01205],[-48.48281,-25.05269],[-48.49792,-25.0586],[-48.5281,-25.10029],[-48.55586,-25.08379],[-48.55918,-25.06016],[-48.56857,-25.05075],[-48.58218,-25.05106],[-48.58106,-25.03435],[-48.5891,-25.02919],[-48.58839,-25.0192],[-48.598,-25.01856],[-48.59745,-25.00283],[-48.58787,-24.98592],[-48.57701,-24.98413],[-48.56704,-24.97167],[-48.57216,-24.95443],[-48.56273,-24.94993],[-48.56891,-24.94328],[-48.56245,-24.93885],[-48.56981,-24.9306],[-48.56598,-24.9163],[-48.57158,-24.89451],[-48.56324,-24.89442],[-48.55882,-24.90068],[-48.55786,-24.88408],[-48.54635,-24.87326],[-48.54921,-24.867],[-48.56619,-24.86345],[-48.56733,-24.847],[-48.55527,-24.82329],[-48.55527,-24.8057],[-48.51629,-24.77964],[-48.51622,-24.76806],[-48.50606,-24.76343],[-48.50722,-24.75187],[-48.49883,-24.73846],[-48.50455,-24.73443],[-48.51102,-24.74006],[-48.5313,-24.73627],[-48.52871,-24.73108],[-48.56872,-24.70031],[-48.58137,-24.67112],[-48.58877,-24.68003],[-48.60173,-24.66868],[-48.61614,-24.66817],[-48.62769,-24.68001],[-48.64483,-24.68102],[-48.64116,-24.68916],[-48.65769,-24.69156],[-48.66085,-24.70595],[-48.67671,-24.69791],[-48.67103,-24.69817],[-48.67658,-24.69202],[-48.67099,-24.6788],[-48.6765,-24.67111],[-48.6936,-24.67018],[-48.6878,-24.67697],[-48.68988,-24.69289],[-48.70327,-24.68007],[-48.73405,-24.68398],[-48.75335,-24.69367],[-48.7568,-24.67935],[-48.76858,-24.69477],[-48.77816,-24.69623],[-48.78772,-24.68069],[-48.81092,-24.67317],[-48.8203,-24.65679],[-48.82827,-24.6551],[-48.83992,-24.66448],[-48.85802,-24.6572],[-48.85097,-24.67413],[-48.86491,-24.66682],[-48.90161,-24.66975],[-48.91197,-24.67295],[-48.91477,-24.68241],[-48.92194,-24.67468],[-48.94505,-24.67341],[-48.95797,-24.68478],[-48.9628,-24.67272],[-48.98755,-24.66477],[-48.98963,-24.65708],[-49.00931,-24.65772],[-48.99985,-24.63618],[-49.00425,-24.63392],[-49.01788,-24.64212],[-49.03293,-24.63397],[-49.04176,-24.64004],[-49.03239,-24.64144],[-49.03691,-24.65992],[-49.05532,-24.68215],[-49.06966,-24.68346],[-49.07534,-24.67274],[-49.08269,-24.67175],[-49.08716,-24.67983],[-49.10846,-24.67605],[-49.11111,-24.68785],[-49.13459,-24.67502],[-49.18516,-24.6722],[-49.20452,-24.68546],[-49.20842,-24.70034],[-49.27545,-24.69312],[-49.29395,-24.67418],[-49.30482,-24.67214],[-49.31141,-24.66312],[-49.29913,-24.65446],[-49.30928,-24.64532],[-49.30589,-24.64235],[-49.31594,-24.63849],[-49.30659,-24.62124],[-49.31419,-24.61376],[-49.31264,-24.6042],[-49.30328,-24.59633],[-49.31605,-24.58749],[-49.31056,-24.58046],[-49.3155,-24.55501],[-49.30508,-24.54589],[-49.29207,-24.55249],[-49.29177,-24.5438],[-49.28087,-24.53671],[-49.29501,-24.50091],[-49.26908,-24.49177],[-49.27069,-24.48294],[-49.26336,-24.47393],[-49.24669,-24.46865],[-49.24485,-24.45794],[-49.25304,-24.45519],[-49.25216,-24.43361],[-49.23497,-24.41054],[-49.24261,-24.40193],[-49.24974,-24.41336],[-49.25338,-24.40725],[-49.22443,-24.36474],[-49.20028,-24.34397],[-49.20538,-24.3377],[-49.2238,-24.33973],[-49.23073,-24.32989],[-49.24839,-24.33002],[-49.24995,-24.31887],[-49.26911,-24.30684],[-49.28296,-24.30754],[-49.28826,-24.29132],[-49.29817,-24.28732],[-49.29822,-24.26756],[-49.30214,-24.25864],[-49.30819,-24.25817],[-49.30489,-24.25093],[-49.35019,-24.2203],[-49.35538,-24.21145],[-49.34106,-24.20262],[-49.34569,-24.19104],[-49.33986,-24.15668],[-49.33197,-24.14962],[-49.33679,-24.13719],[-49.36161,-24.1268],[-49.37036,-24.11389],[-49.38884,-24.11887],[-49.40857,-24.10779],[-49.40439,-24.09535],[-49.42977,-24.08694],[-49.42852,-24.07754],[-49.43472,-24.07466],[-49.4293,-24.06821],[-49.4385,-24.06825],[-49.43735,-24.05828],[-49.45296,-24.05268],[-49.46295,-24.02694],[-49.47327,-24.02682],[-49.47389,-24.01956],[-49.48667,-24.0241],[-49.48567,-24.01614],[-49.4909,-24.01404],[-49.48008,-24.00567],[-49.49745,-23.99334],[-49.4932,-23.9771],[-49.50306,-23.96806],[-49.51571,-23.96945],[-49.49943,-23.95881],[-49.50498,-23.95434],[-49.5029,-23.94813],[-49.52061,-23.94561],[-49.52398,-23.93466],[-49.51172,-23.93719],[-49.50756,-23.93322],[-49.51389,-23.93052],[-49.51114,-23.92537],[-49.52252,-23.91654],[-49.53152,-23.92858],[-49.5565,-23.92224],[-49.55397,-23.9148],[-49.57664,-23.89569],[-49.57311,-23.87746],[-49.58557,-23.88848],[-49.60198,-23.86779],[-49.59923,-23.85659],[-49.61025,-23.8512],[-49.59499,-23.8463],[-49.60755,-23.83888],[-49.59808,-23.83637],[-49.58658,-23.84158],[-49.59246,-23.82978],[-49.56188,-23.81808],[-49.56047,-23.79044],[-49.56957,-23.77812],[-49.56018,-23.76088],[-49.5715,-23.75459],[-49.56346,-23.74941],[-49.56356,-23.73172],[-49.54861,-23.73603],[-49.55414,-23.72279],[-49.54936,-23.70323],[-49.56125,-23.68499],[-49.56763,-23.68755],[-49.57419,-23.67542],[-49.57924,-23.67777],[-49.58498,-23.65832],[-49.6014,-23.65145],[-49.60289,-23.64306],[-49.61665,-23.6391],[-49.60775,-23.63357],[-49.60581,-23.62454],[-49.61315,-23.6228],[-49.62064,-23.60656],[-49.61593,-23.59105],[-49.60153,-23.58221],[-49.6075,-23.56474],[-49.59875,-23.55322],[-49.60465,-23.54211],[-49.59972,-23.53513],[-49.62372,-23.52281],[-49.6287,-23.51174],[-49.62122,-23.50549],[-49.6141,-23.50768],[-49.62089,-23.49283],[-49.61354,-23.4865],[-49.61439,-23.47171],[-49.59809,-23.47666],[-49.60259,-23.45095],[-49.59515,-23.43989],[-49.57912,-23.43613],[-49.57252,-23.44338],[-49.56661,-23.42674],[-49.5803,-23.43109],[-49.57983,-23.41457],[-49.58909,-23.4152],[-49.59317,-23.40628],[-49.60319,-23.40732],[-49.59818,-23.39905],[-49.60494,-23.39395],[-49.61887,-23.39649],[-49.62045,-23.38985],[-49.60283,-23.38341],[-49.59106,-23.3881],[-49.58991,-23.3823],[-49.59479,-23.36644],[-49.61168,-23.35419],[-49.63295,-23.35593],[-49.63711,-23.34923],[-49.63572,-23.33928],[-49.62895,-23.34327],[-49.62125,-23.3314],[-49.6309,-23.30394],[-49.62532,-23.28613],[-49.64661,-23.25119],[-49.64461,-23.23963],[-49.65408,-23.22727],[-49.6534,-23.21141],[-49.68278,-23.17312],[-49.67783,-23.16457],[-49.69777,-23.16364],[-49.70091,-23.15254],[-49.70933,-23.15634],[-49.73,-23.14096],[-49.73442,-23.1324],[-49.72658,-23.1079],[-49.74087,-23.0988],[-49.75089,-23.09727],[-49.76246,-23.10509],[-49.78991,-23.10183],[-49.79508,-23.0941],[-49.80611,-23.09385],[-49.81222,-23.07949],[-49.8265,-23.07438],[-49.83317,-23.06545],[-49.85009,-23.07277],[-49.86692,-23.0712],[-49.88121,-23.05964],[-49.88487,-23.06443],[-49.91111,-23.05063],[-49.91591,-23.03596],[-49.90104,-22.99866],[-49.93027,-22.98254],[-49.95406,-22.97791],[-49.97166,-22.95874],[-49.96089,-22.93038],[-49.96464,-22.91602],[-49.98567,-22.89702],[-49.99729,-22.90098],[-49.99019,-22.92391],[-49.99576,-22.92905],[-50.00523,-22.92687],[-50.01703,-22.91038],[-50.04615,-22.90201],[-50.06698,-22.92703],[-50.08036,-22.92131],[-50.0942,-22.92345],[-50.11296,-22.93781],[-50.15097,-22.93472],[-50.18284,-22.95327],[-50.21639,-22.94741],[-50.23815,-22.95262],[-50.24611,-22.93799],[-50.2729,-22.93051],[-50.29992,-22.93745],[-50.318,-22.9502],[-50.33969,-22.94758],[-50.35809,-22.91658],[-50.37989,-22.90445],[-50.41638,-22.91277],[-50.41864,-22.93388],[-50.42747,-22.94451],[-50.46089,-22.9445],[-50.48724,-22.93687],[-50.5044,-22.94577],[-50.5264,-22.93444],[-50.52953,-22.91862],[-50.54088,-22.91161],[-50.57651,-22.90349],[-50.60838,-22.92331],[-50.64832,-22.89656],[-50.66179,-22.89521],[-50.67553,-22.90003],[-50.70934,-22.95295],[-50.72935,-22.96201],[-50.7411,-22.96091],[-50.75817,-22.94717],[-50.79578,-22.9496],[-50.80565,-22.93981],[-50.79245,-22.89387],[-50.81652,-22.87905],[-50.83272,-22.8578],[-50.84189,-22.83092],[-50.89039,-22.79533],[-50.91856,-22.79539],[-50.94463,-22.80359],[-50.96112,-22.78574],[-50.97809,-22.78305],[-51.00362,-22.79219],[-51.05711,-22.76557],[-51.1544,-22.75239],[-51.18652,-22.72941],[-51.21156,-22.72373],[-51.23485,-22.7082],[-51.24659,-22.68471],[-51.26329,-22.66857],[-51.28093,-22.66599],[-51.3058,-22.67394],[-51.37321,-22.65769],[-51.40145,-22.66742],[-51.42422,-22.65303],[-51.44579,-22.65278],[-51.47143,-22.67665],[-51.4984,-22.69005],[-51.52519,-22.68632],[-51.55907,-22.6967],[-51.58954,-22.68521],[-51.61534,-22.66211],[-51.62808,-22.658],[-51.66183,-22.65676],[-51.69867,-22.66889],[-51.71766,-22.66853],[-51.72537,-22.66095],[-51.73473,-22.62491],[-51.75278,-22.61727],[-51.77293,-22.61408],[-51.84659,-22.63174],[-51.87301,-22.62776],[-51.94001,-22.56686],[-51.9977,-22.54513],[-52.05556,-22.53834],[-52.10713,-22.51621],[-52.12517,-22.51879],[-52.14825,-22.54877],[-52.16091,-22.59732],[-52.15617,-22.64424],[-52.22299,-22.67383],[-52.22998,-22.63754],[-52.23962,-22.6194],[-52.2499,-22.61495],[-52.27818,-22.6199],[-52.30428,-22.63599],[-52.36919,-22.6285],[-52.43478,-22.60691],[-52.50279,-22.63359],[-52.53991,-22.61311],[-52.58622,-22.56604],[-52.60274,-22.57073],[-52.66244,-22.61138],[-52.70117,-22.62699],[-52.72192,-22.62627],[-52.74979,-22.61189],[-52.81492,-22.59657],[-52.84435,-22.60874],[-52.85785,-22.60752],[-52.90485,-22.57173],[-52.92423,-22.56515],[-52.97191,-22.57001],[-53.07421,-22.64087],[-53.0873,-22.65792],[-53.10819,-22.61308],[-53.10775,-22.59682],[-53.08093,-22.55777],[-53.05543,-22.53538],[-53.01315,-22.51928],[-52.99807,-22.49271],[-52.85733,-22.441],[-52.83937,-22.41484],[-52.79782,-22.3778],[-52.74532,-22.34284],[-52.69462,-22.31413],[-52.65638,-22.30332],[-52.62443,-22.27983],[-52.60148,-22.27147],[-52.57867,-22.25147],[-52.4925,-22.21948],[-52.47945,-22.20041],[-52.40768,-22.14116],[-52.39751,-22.12151],[-52.37671,-22.1062],[-52.34492,-22.06149],[-52.30831,-21.95144],[-52.27538,-21.91547],[-52.2479,-21.90181],[-52.19006,-21.84567],[-52.18304,-21.81314],[-52.16076,-21.7703],[-52.13954,-21.75525],[-52.1024,-21.7448],[-52.07598,-21.71438],[-52.04933,-21.66086],[-52.04901,-21.64264],[-52.06838,-21.59763],[-52.09948,-21.57022],[-52.10279,-21.55859],[-52.09274,-21.53758],[-52.06595,-21.50412],[-51.99767,-21.51516],[-51.9674,-21.50129],[-51.94986,-21.4716],[-51.92818,-21.45534],[-51.90563,-21.38475],[-51.86719,-21.35119],[-51.84801,-21.26616],[-51.87881,-21.19741],[-51.87536,-21.13568],[-51.86498,-21.13007],[-51.82309,-21.12637],[-51.8075,-21.10955],[-51.78917,-21.10165],[-51.77515,-21.07262],[-51.77164,-21.04828],[-51.75283,-21.01386],[-51.72469,-20.97968],[-51.7132,-20.97099],[-51.66556,-20.97006],[-51.62619,-20.94588],[-51.61849,-20.93195],[-51.61298,-20.8896],[-51.62466,-20.87293],[-51.62988,-20.85141],[-51.63248,-20.82109],[-51.62326,-20.77885],[-51.6344,-20.75438],[-51.62772,-20.7246],[-51.59571,-20.64829],[-51.57622,-20.62485],[-51.49973,-20.56775],[-51.46329,-20.50098],[-51.44873,-20.48235],[-51.40878,-20.4591],[-51.35037,-20.36271],[-51.321,-20.33919],[-51.29519,-20.32801],[-51.15061,-20.30145],[-51.10053,-20.27355],[-51.06867,-20.24958],[-51.05788,-20.23267],[-50.99998,-20.08491],[-50.96597,-20.03406],[-50.9448,-20.02863],[-50.93317,-20.01446],[-50.91139,-20.0026],[-50.90764,-19.99379],[-50.87127,-19.98809],[-50.85289,-19.97097],[-50.81685,-19.95786],[-50.78311,-19.93676],[-50.72463,-19.92635],[-50.65641,-19.90491],[-50.6357,-19.8746],[-50.60576,-19.85587],[-50.5755,-19.81555],[-50.54668,-19.81013],[-50.51656,-19.79594],[-50.4987,-19.79533],[-50.47142,-19.77918],[-50.41403,-19.80329],[-50.35661,-19.8541],[-50.35231,-19.86412],[-50.31137,-19.8726],[-50.28515,-19.86735],[-50.24467,-19.87629],[-50.20001,-19.86699],[-50.15921,-19.87778],[-50.10233,-19.87544],[-50.07634,-19.88756],[-50.04342,-19.91603],[-50.01171,-19.92624],[-49.95963,-19.92043],[-49.8908,-19.94325],[-49.85509,-19.94635],[-49.83478,-19.93284],[-49.78198,-19.92399],[-49.64074,-19.9314],[-49.60548,-19.91601],[-49.58167,-19.90957],[-49.55873,-19.91074],[-49.55099,-19.90537],[-49.50301,-19.91945],[-49.48701,-19.95476],[-49.45771,-19.97551],[-49.4399,-19.98033],[-49.35599,-19.98624],[-49.29706,-19.96007],[-49.2647,-19.96157],[-49.25025,-19.97033],[-49.24787,-19.99917],[-49.26206,-20.00645],[-49.28355,-20.00438],[-49.29609,-20.01638],[-49.30806,-20.10151],[-49.29877,-20.16659],[-49.26537,-20.22785],[-49.25759,-20.24598],[-49.25903,-20.25778],[-49.23835,-20.28657],[-49.21719,-20.30323],[-49.17909,-20.3097],[-49.12026,-20.26883],[-49.08921,-20.21128],[-49.06744,-20.15397],[-49.02812,-20.15067],[-48.99178,-20.16492],[-48.97171,-20.20699],[-48.96132,-20.26282],[-48.96843,-20.39327],[-48.96255,-20.40264],[-48.89886,-20.44072],[-48.87813,-20.42919],[-48.8671,-20.39819],[-48.87955,-20.34781],[-48.87519,-20.31452],[-48.88807,-20.2947],[-48.88499,-20.26866],[-48.87174,-20.24138],[-48.85787,-20.22938],[-48.85517,-20.18161],[-48.82274,-20.16143],[-48.78067,-20.16337],[-48.72907,-20.14977],[-48.69219,-20.16218],[-48.6464,-20.16607],[-48.58074,-20.13166],[-48.49065,-20.13765],[-48.40531,-20.11304],[-48.36875,-20.12231],[-48.31928,-20.11296],[-48.29503,-20.12353],[-48.28356,-20.13763],[-48.24591,-20.14047],[-48.21821,-20.1259],[-48.21853,-20.11491],[-48.25298,-20.07738],[-48.24369,-20.04687],[-48.24705,-20.03544],[-48.24048,-20.02887],[-48.21363,-20.03487],[-48.182,-20.07415],[-48.17835,-20.09532],[-48.15783,-20.10374],[-48.14726,-20.12367],[-48.12608,-20.13078],[-48.11162,-20.14342],[-48.06998,-20.14613],[-48.04892,-20.13676],[-48.03773,-20.11652],[-48.01939,-20.11968],[-48.00289,-20.10416],[-47.9901,-20.07451],[-47.99014,-20.04438],[-47.97551,-20.03489],[-47.94801,-20.05534],[-47.94303,-20.09152],[-47.93364,-20.10737],[-47.89392,-20.12336],[-47.87816,-20.10257],[-47.8695,-20.06322],[-47.85985,-20.05292],[-47.87536,-20.02954],[-47.85932,-19.99252],[-47.83422,-19.99559],[-47.8011,-19.98476],[-47.75065,-19.98981],[-47.70378,-19.97943],[-47.6757,-20.00143],[-47.67231,-20.01772],[-47.66177,-20.02859],[-47.63552,-20.0479],[-47.61353,-20.04163],[-47.59428,-20.02528],[-47.59207,-20.00652],[-47.58064,-19.99538],[-47.55369,-19.9955],[-47.53948,-19.98384],[-47.50807,-19.98246],[-47.49714,-19.97113],[-47.48078,-19.96858],[-47.47325,-19.96155],[-47.46592,-19.96374],[-47.42521,-20.01235],[-47.44345,-20.02924],[-47.43867,-20.04919],[-47.4055,-20.08085],[-47.37412,-20.08318],[-47.35822,-20.1035],[-47.30922,-20.12402],[-47.29255,-20.14818],[-47.26736,-20.15682],[-47.25659,-20.16572],[-47.25441,-20.19157],[-47.23065,-20.21862],[-47.24581,-20.26096],[-47.27627,-20.29116],[-47.28506,-20.33169],[-47.29776,-20.34797],[-47.28538,-20.40482],[-47.29303,-20.41754],[-47.28831,-20.42107],[-47.2949,-20.4262],[-47.28683,-20.43467],[-47.29133,-20.44883],[-47.21103,-20.50182],[-47.15392,-20.51924],[-47.14554,-20.53335],[-47.1372,-20.56063],[-47.14203,-20.56547],[-47.13195,-20.59027],[-47.12233,-20.59425],[-47.12411,-20.6088],[-47.10844,-20.62103],[-47.1122,-20.63751],[-47.09692,-20.64385],[-47.09606,-20.65859],[-47.10077,-20.68264],[-47.11451,-20.70532],[-47.14866,-20.70711],[-47.16535,-20.70137],[-47.17267,-20.71143],[-47.16905,-20.71721],[-47.1858,-20.73065],[-47.17472,-20.73877],[-47.18185,-20.74087],[-47.18836,-20.77014],[-47.20661,-20.77505],[-47.2134,-20.79182],[-47.2243,-20.79964],[-47.21457,-20.82531],[-47.23959,-20.8848],[-47.22412,-20.91113],[-47.21,-20.92365],[-47.18958,-20.92773],[-47.19211,-20.94157],[-47.16407,-20.96556],[-47.14912,-20.96948],[-47.14327,-20.9819],[-47.15652,-21.01848],[-47.13864,-21.0688],[-47.14183,-21.08774],[-47.1127,-21.10443],[-47.13305,-21.13297],[-47.11685,-21.15321],[-47.1232,-21.16741],[-47.11833,-21.18529],[-47.10314,-21.19938],[-47.09825,-21.213],[-47.08612,-21.20678],[-47.0623,-21.2095],[-47.07843,-21.23009],[-47.07691,-21.2393],[-47.06265,-21.23883],[-47.05182,-21.24612],[-47.03908,-21.28044],[-47.04191,-21.28947],[-47.02946,-21.29933],[-47.03472,-21.31054],[-47.02054,-21.32117],[-47.01745,-21.33995],[-46.9976,-21.35034],[-46.99644,-21.35692],[-47.00908,-21.37026],[-47.00415,-21.38313],[-47.01496,-21.39581],[-47.00726,-21.41018],[-47.01078,-21.42181],[-46.98642,-21.42115],[-46.98351,-21.42663],[-46.97448,-21.41912],[-46.9562,-21.42426],[-46.94865,-21.4191],[-46.92032,-21.42664],[-46.89984,-21.4127],[-46.89285,-21.41513],[-46.88423,-21.40648],[-46.86767,-21.40323],[-46.85533,-21.38923],[-46.84167,-21.38863],[-46.83231,-21.36732],[-46.79131,-21.37319],[-46.76425,-21.35958],[-46.75818,-21.36391],[-46.76167,-21.37451],[-46.75509,-21.37977],[-46.73651,-21.39201],[-46.71999,-21.38915],[-46.7055,-21.40435],[-46.69175,-21.38226],[-46.67347,-21.37401],[-46.66525,-21.36116],[-46.64673,-21.36377],[-46.6471,-21.39247],[-46.63689,-21.4102],[-46.62612,-21.41099],[-46.61798,-21.42069],[-46.61481,-21.44098],[-46.60226,-21.44332],[-46.5761,-21.42647],[-46.56098,-21.44132],[-46.51979,-21.44801],[-46.51911,-21.46154],[-46.5088,-21.46941],[-46.50842,-21.48863],[-46.5188,-21.5004],[-46.51538,-21.51069],[-46.5237,-21.52145],[-46.52009,-21.53301],[-46.51014,-21.5363],[-46.49971,-21.5541],[-46.52144,-21.58417],[-46.518,-21.59253],[-46.524,-21.60049],[-46.51552,-21.6055],[-46.5171,-21.6114],[-46.55253,-21.63758],[-46.54787,-21.64924],[-46.56548,-21.65758],[-46.56541,-21.67885],[-46.57706,-21.68445],[-46.62114,-21.67505],[-46.62929,-21.70248],[-46.62199,-21.71505],[-46.63039,-21.74041],[-46.62558,-21.76571],[-46.65354,-21.77875],[-46.65082,-21.78903],[-46.69051,-21.83646],[-46.67669,-21.84985],[-46.6663,-21.84855],[-46.65671,-21.87678],[-46.64709,-21.87997],[-46.65272,-21.89543],[-46.66421,-21.89855],[-46.67202,-21.90866],[-46.66456,-21.92009],[-46.66685,-21.93206],[-46.65319,-21.94122],[-46.64341,-21.97446],[-46.61779,-21.99445],[-46.61302,-22.00911],[-46.61672,-22.01659],[-46.63989,-22.00839],[-46.65185,-22.01024],[-46.66175,-22.0232],[-46.67412,-22.02184],[-46.68152,-22.02811],[-46.68495,-22.03686],[-46.67594,-22.05488],[-46.65786,-22.05981],[-46.66437,-22.06841],[-46.70565,-22.07847],[-46.72281,-22.07652],[-46.7158,-22.08941],[-46.70002,-22.09468],[-46.68006,-22.09065],[-46.67047,-22.09685],[-46.6511,-22.09082],[-46.63389,-22.10717],[-46.62284,-22.10933],[-46.61567,-22.13013],[-46.60006,-22.13425],[-46.61259,-22.14976],[-46.63977,-22.15716],[-46.64549,-22.17991],[-46.6732,-22.17563],[-46.67773,-22.2235],[-46.69267,-22.23713],[-46.68812,-22.24816],[-46.69358,-22.24617],[-46.71044,-22.26345],[-46.70188,-22.27738],[-46.71007,-22.28449],[-46.705,-22.29541],[-46.71516,-22.30597],[-46.7228,-22.30613],[-46.7175,-22.31645],[-46.71053,-22.3123],[-46.71036,-22.31884],[-46.70074,-22.321],[-46.6976,-22.34199],[-46.67511,-22.36871],[-46.66047,-22.36555],[-46.6661,-22.4139],[-46.64663,-22.42821],[-46.63959,-22.4252],[-46.63114,-22.43533],[-46.61147,-22.43495],[-46.60299,-22.44259],[-46.59128,-22.43762],[-46.58146,-22.44067],[-46.5722,-22.45264],[-46.55436,-22.44616],[-46.54811,-22.45479],[-46.5491,-22.46851],[-46.53021,-22.47035],[-46.54169,-22.49386],[-46.50653,-22.50646],[-46.50483,-22.51655],[-46.49072,-22.50989],[-46.48411,-22.51875],[-46.45406,-22.5219],[-46.42585,-22.54707],[-46.41749,-22.54696],[-46.41124,-22.5362],[-46.40669,-22.54005],[-46.41096,-22.55382],[-46.4333,-22.57338],[-46.42824,-22.58343],[-46.41219,-22.5852],[-46.42257,-22.59812],[-46.4043,-22.62039],[-46.42255,-22.62435],[-46.42417,-22.6331],[-46.39586,-22.64548],[-46.3926,-22.66248],[-46.40541,-22.67206],[-46.40538,-22.66252],[-46.41296,-22.65935],[-46.46085,-22.67551],[-46.46927,-22.67296],[-46.48018,-22.67782],[-46.46992,-22.69375],[-46.47748,-22.6989],[-46.45773,-22.70674],[-46.45228,-22.72705],[-46.439,-22.72623],[-46.42636,-22.73534],[-46.42261,-22.73206],[-46.39229,-22.743],[-46.38535,-22.73981],[-46.36,-22.76082],[-46.35443,-22.75659],[-46.33476,-22.7597],[-46.33212,-22.76559],[-46.36124,-22.78844],[-46.37636,-22.82733],[-46.37024,-22.83457],[-46.37215,-22.85934],[-46.38373,-22.86947],[-46.37505,-22.87051],[-46.37741,-22.87656],[-46.35918,-22.89564],[-46.34477,-22.90418],[-46.31516,-22.8868],[-46.295,-22.8971],[-46.27857,-22.87785],[-46.26641,-22.87519],[-46.25808,-22.89007],[-46.23772,-22.89366],[-46.23369,-22.88132],[-46.19174,-22.86473],[-46.18505,-22.86869],[-46.14419,-22.8578],[-46.13644,-22.89004],[-46.15355,-22.91193],[-46.13863,-22.92226],[-46.09477,-22.89393],[-46.07494,-22.89046],[-46.05082,-22.89582],[-46.02688,-22.88417],[-46.00799,-22.88872],[-45.9917,-22.87701],[-45.9919,-22.86909],[-45.95974,-22.85714],[-45.94997,-22.8454],[-45.93702,-22.84477],[-45.92213,-22.82355],[-45.90943,-22.81678],[-45.90388,-22.81878],[-45.90549,-22.83326],[-45.89057,-22.84417],[-45.89365,-22.85661],[-45.88846,-22.87532],[-45.86341,-22.86822],[-45.84768,-22.83733],[-45.82294,-22.82938],[-45.80239,-22.83335],[-45.79082,-22.85764],[-45.76567,-22.84194],[-45.77049,-22.80542],[-45.75447,-22.79241],[-45.74246,-22.79484],[-45.74125,-22.80742],[-45.72233,-22.81582],[-45.71314,-22.81428],[-45.72953,-22.79841],[-45.72878,-22.78681],[-45.71635,-22.77948],[-45.71207,-22.76856],[-45.72783,-22.72317],[-45.75666,-22.72084],[-45.79638,-22.73828],[-45.81942,-22.72206],[-45.8112,-22.69825],[-45.78741,-22.69286],[-45.77843,-22.68307],[-45.74878,-22.66969],[-45.74236,-22.65867],[-45.71628,-22.66132],[-45.69355,-22.65121],[-45.70827,-22.63897],[-45.71713,-22.6205],[-45.72868,-22.6179],[-45.73699,-22.60807],[-45.73415,-22.59695],[-45.71647,-22.5781],[-45.69679,-22.58589],[-45.6793,-22.57292],[-45.66045,-22.57848],[-45.65842,-22.59761],[-45.68063,-22.63584],[-45.66456,-22.65016],[-45.61768,-22.63742],[-45.60463,-22.61993],[-45.58955,-22.61856],[-45.58433,-22.61501],[-45.58751,-22.60989],[-45.57627,-22.60185],[-45.55491,-22.62594],[-45.57688,-22.64003],[-45.58393,-22.65119],[-45.57307,-22.65647],[-45.53946,-22.65208],[-45.49997,-22.6256],[-45.48836,-22.62828],[-45.47455,-22.59852],[-45.48084,-22.5907],[-45.47134,-22.59002],[-45.43705,-22.61124],[-45.43511,-22.61783],[-45.41249,-22.62171],[-45.41005,-22.65117],[-45.39955,-22.65263],[-45.37015,-22.63681],[-45.36051,-22.63826],[-45.33252,-22.61714],[-45.27416,-22.61569],[-45.26099,-22.60664],[-45.25943,-22.58237],[-45.22265,-22.56313],[-45.1776,-22.54938],[-45.16407,-22.53743],[-45.15957,-22.51642],[-45.12802,-22.49661],[-45.09068,-22.4826],[-45.08218,-22.48585],[-45.06025,-22.47205],[-45.02796,-22.4627],[-45.0267,-22.46972],[-44.99138,-22.46567],[-44.96543,-22.47469],[-44.93963,-22.45217],[-44.89854,-22.45233],[-44.88929,-22.43162],[-44.87105,-22.42376],[-44.83291,-22.43038],[-44.82375,-22.41891],[-44.80755,-22.41356],[-44.8088,-22.40477],[-44.75466,-22.41443],[-44.73998,-22.42612],[-44.71818,-22.46488],[-44.72345,-22.48358],[-44.70965,-22.49991],[-44.71526,-22.51375],[-44.70071,-22.51062],[-44.67998,-22.52569],[-44.6705,-22.53919],[-44.67695,-22.56048],[-44.66109,-22.55043],[-44.64129,-22.55887],[-44.64492,-22.60206],[-44.63302,-22.60873],[-44.62185,-22.6055],[-44.60984,-22.61617],[-44.60187,-22.60713],[-44.5837,-22.62545],[-44.57261,-22.60145],[-44.56281,-22.61101],[-44.54852,-22.60568],[-44.52563,-22.61902],[-44.53702,-22.63187],[-44.53485,-22.63704],[-44.53079,-22.63931],[-44.53097,-22.63025],[-44.51449,-22.62972],[-44.50815,-22.64044],[-44.4851,-22.61041],[-44.4871,-22.60565],[-44.4644,-22.61547],[-44.42979,-22.59803],[-44.40591,-22.60712],[-44.39808,-22.60252],[-44.40897,-22.58776],[-44.39124,-22.57291],[-44.38398,-22.57322],[-44.35994,-22.58127],[-44.36985,-22.58936],[-44.36115,-22.59263],[-44.36065,-22.61121],[-44.35597,-22.61376],[-44.34321,-22.58794],[-44.29535,-22.59775],[-44.28526,-22.60923],[-44.27107,-22.60045],[-44.25302,-22.61174],[-44.24758,-22.60613],[-44.22637,-22.60407],[-44.21868,-22.61716],[-44.20375,-22.61492],[-44.20335,-22.62613],[-44.18384,-22.63679],[-44.18988,-22.64719],[-44.17349,-22.65739],[-44.16175,-22.67414],[-44.17621,-22.69266],[-44.17791,-22.7072],[-44.20328,-22.71571],[-44.19798,-22.72448],[-44.20154,-22.73193],[-44.22676,-22.73349],[-44.24167,-22.74892],[-44.23834,-22.75522],[-44.25004,-22.75706],[-44.25713,-22.76798],[-44.25606,-22.78691],[-44.24179,-22.78768],[-44.24127,-22.79267],[-44.24507,-22.80208],[-44.26098,-22.80468],[-44.26953,-22.8298],[-44.28289,-22.8354],[-44.28629,-22.82804],[-44.29621,-22.82734],[-44.32147,-22.84485],[-44.32538,-22.83805],[-44.3738,-22.85758],[-44.41296,-22.84774],[-44.42628,-22.8552],[-44.4367,-22.8707],[-44.46656,-22.88456],[-44.48052,-22.86581],[-44.47935,-22.85087],[-44.49429,-22.84599],[-44.53258,-22.86873],[-44.54379,-22.88443],[-44.55479,-22.88859],[-44.57552,-22.87811],[-44.60018,-22.88829],[-44.60663,-22.88519],[-44.65905,-22.92738],[-44.67346,-22.91779],[-44.68792,-22.93591],[-44.71149,-22.92948],[-44.74341,-22.9471],[-44.75485,-22.9798],[-44.79204,-22.98166],[-44.79288,-22.99321],[-44.8022,-22.99864],[-44.79271,-23.00975],[-44.80272,-23.049],[-44.81113,-23.05401],[-44.80688,-23.06163],[-44.81357,-23.06713],[-44.81798,-23.08966],[-44.8086,-23.09923],[-44.81577,-23.1097],[-44.81067,-23.12522],[-44.81937,-23.13273],[-44.81643,-23.14027],[-44.82501,-23.14322],[-44.82444,-23.16098],[-44.87261,-23.18381],[-44.88849,-23.224],[-44.88507,-23.23193],[-44.87784,-23.23232],[-44.87462,-23.24866],[-44.85399,-23.24849],[-44.83651,-23.25631],[-44.8397,-23.26331],[-44.82362,-23.28037],[-44.82617,-23.29074],[-44.80695,-23.28287],[-44.80491,-23.28954],[-44.78703,-23.29958],[-44.77788,-23.33852],[-44.7597,-23.34199],[-44.7497,-23.35803],[-44.724,-23.3676],[-44.75025,-23.36642],[-44.78399,-23.37817],[-44.79165,-23.36965],[-44.82828,-23.3879],[-44.84378,-23.38694],[-44.8382,-23.36928],[-44.85351,-23.361],[-44.87127,-23.35933],[-44.89111,-23.37249],[-44.88544,-23.34155],[-44.90736,-23.3332],[-44.91718,-23.3474],[-44.94191,-23.35714],[-44.94931,-23.37849],[-44.96092,-23.38053],[-44.97859,-23.40007],[-44.99326,-23.39763],[-45.00797,-23.40605],[-45.0146,-23.41801],[-45.03172,-23.41346],[-45.04362,-23.42526],[-45.0517,-23.41568],[-45.06092,-23.41965],[-45.05999,-23.43076],[-45.06875,-23.43519],[-45.05926,-23.45659],[-45.05499,-23.45888],[-45.03793,-23.44776],[-45.03453,-23.45937],[-45.01866,-23.46132],[-45.04473,-23.46113],[-45.05216,-23.46841],[-45.06337,-23.46865],[-45.07358,-23.48686],[-45.06697,-23.49358],[-45.08024,-23.50911],[-45.08162,-23.52126],[-45.08359,-23.49526],[-45.10355,-23.49588],[-45.10645,-23.4886],[-45.12397,-23.50219],[-45.10788,-23.5073],[-45.10626,-23.52315],[-45.11364,-23.5254],[-45.11337,-23.51972],[-45.13761,-23.51114],[-45.13601,-23.5029],[-45.14635,-23.49656],[-45.15991,-23.49933],[-45.16543,-23.49187],[-45.17124,-23.49309],[-45.17305,-23.50978],[-45.16381,-23.51706],[-45.16606,-23.52825],[-45.15841,-23.52997],[-45.16197,-23.54184],[-45.18549,-23.54103],[-45.18686,-23.52828],[-45.19511,-23.51974],[-45.22778,-23.53757],[-45.23116,-23.54845],[-45.2181,-23.55627],[-45.21568,-23.56463],[-45.20946,-23.56462],[-45.21488,-23.56821],[-45.21021,-23.5705],[-45.21106,-23.58253],[-45.23427,-23.58265],[-45.24447,-23.59294],[-45.25785,-23.58988],[-45.2631,-23.59668],[-45.26348,-23.58902],[-45.27826,-23.58826],[-45.28118,-23.573],[-45.29718,-23.57164],[-45.3191,-23.57782],[-45.33646,-23.59189],[-45.35797,-23.62429],[-45.37026,-23.6299],[-45.37769,-23.62368],[-45.38949,-23.63342],[-45.40613,-23.62285],[-45.42974,-23.65528],[-45.43227,-23.68368],[-45.42042,-23.7259],[-45.39684,-23.72501],[-45.39823,-23.73619],[-45.41096,-23.74966],[-45.39631,-23.77981],[-45.39933,-23.8089],[-45.40705,-23.81052],[-45.40463,-23.81959],[-45.43081,-23.8318],[-45.43942,-23.8259],[-45.44488,-23.83144],[-45.46467,-23.81825],[-45.5025,-23.84134],[-45.51295,-23.83998],[-45.51306,-23.83104],[-45.53705,-23.82912],[-45.53356,-23.81851],[-45.54351,-23.8084],[-45.55423,-23.80929],[-45.55435,-23.79715],[-45.5612,-23.79113],[-45.58593,-23.79203],[-45.62312,-23.80355],[-45.62519,-23.78774],[-45.64165,-23.78465],[-45.64264,-23.77773],[-45.66454,-23.78531],[-45.67087,-23.77449],[-45.69282,-23.78199],[-45.69771,-23.77262],[-45.75571,-23.76976],[-45.76821,-23.762],[-45.8024,-23.7692],[-45.80202,-23.76142],[-45.81032,-23.75748],[-45.84401,-23.7576],[-45.90268,-23.76498],[-45.97795,-23.78696],[-45.99688,-23.80226],[-46.00654,-23.79878],[-46.03174,-23.80878],[-46.04408,-23.83039],[-46.05014,-23.82912],[-46.04399,-23.82454],[-46.05126,-23.81556],[-46.07545,-23.81648],[-46.11832,-23.83505],[-46.13004,-23.8451],[-46.13327,-23.85688],[-46.14287,-23.86009]]],[[[-45.304,-23.90863],[-45.33185,-23.91591],[-45.33974,-23.925],[-45.34785,-23.91697],[-45.35824,-23.92815],[-45.42737,-23.94039],[-45.44318,-23.934],[-45.45968,-23.91499],[-45.46166,-23.88776],[-45.43408,-23.86858],[-45.43005,-23.85976],[-45.41786,-23.85867],[-45.41184,-23.84658],[-45.36593,-23.80965],[-45.36264,-23.78614],[-45.34881,-23.76412],[-45.34662,-23.73872],[-45.341,-23.72705],[-45.32882,-23.72099],[-45.26116,-23.74251],[-45.25513,-23.75001],[-45.25822,-23.75868],[-45.24542,-23.76133],[-45.22959,-23.77629],[-45.24188,-23.80834],[-45.23867,-23.81845],[-45.24818,-23.82437],[-45.2446,-23.83124],[-45.23829,-23.83098],[-45.24117,-23.83851],[-45.22786,-23.83818],[-45.23837,-23.84314],[-45.25563,-23.83633],[-45.27217,-23.83827],[-45.28501,-23.84999],[-45.28974,-23.86589],[-45.28777,-23.87228],[-45.26892,-23.87449],[-45.27692,-23.88329],[-45.27185,-23.89153],[-45.26152,-23.89163],[-45.24753,-23.90129],[-45.24257,-23.89164],[-45.22444,-23.90247],[-45.23812,-23.90804],[-45.23573,-23.94187],[-45.22677,-23.94079],[-45.25047,-23.96548],[-45.26729,-23.96326],[-45.28542,-23.94149],[-45.27958,-23.92871],[-45.29018,-23.9102],[-45.30174,-23.91458],[-45.304,-23.90863]]],[[[-45.07785,-23.53529],[-45.06482,-23.53802],[-45.05914,-23.52623],[-45.0394,-23.53438],[-45.042,-23.54144],[-45.05726,-23.54581],[-45.0792,-23.56384],[-45.0805,-23.52541],[-45.07785,-23.53529]]],[[[-45.13977,-23.79987],[-45.11492,-23.80717],[-45.11968,-23.81728],[-45.1323,-23.81255],[-45.14615,-23.82093],[-45.15639,-23.81289],[-45.15835,-23.80518],[-45.14858,-23.79455],[-45.13833,-23.79267],[-45.13977,-23.79987]]],[[[-45.16338,-23.56671],[-45.15631,-23.55927],[-45.1458,-23.57018],[-45.15762,-23.57281],[-45.16338,-23.56671]]],[[[-45.01591,-23.76532],[-45.0186,-23.75424],[-45.00929,-23.75221],[-45.01591,-23.76532]]],[[[-45.77901,-23.86761],[-45.78686,-23.86729],[-45.7846,-23.85837],[-45.7755,-23.85866],[-45.77901,-23.86761]]],[[[-45.29527,-23.60004],[-45.29231,-23.59325],[-45.28083,-23.59307],[-45.28282,-23.60109],[-45.29527,-23.60004]]],[[[-45.0186,-23.75424],[-45.02429,-23.75193],[-45.02275,-23.74356],[-45.01463,-23.74673],[-45.0186,-23.75424]]],[[[-45.72401,-23.80295],[-45.71912,-23.79783],[-45.71455,-23.80298],[-45.72401,-23.80295]]],[[[-45.52603,-23.84933],[-45.52024,-23.84863],[-45.52221,-23.85442],[-45.52521,-23.85402],[-45.52603,-23.84933]]],[[[-46.90626,-24.39441],[-46.90312,-24.38725],[-46.9034,-24.39663],[-46.90626,-24.39441]]],[[[-46.91065,-24.37745],[-46.90454,-24.37383],[-46.90859,-24.38053],[-46.91065,-24.37745]]],[[[-45.03332,-23.54871],[-45.02801,-23.54508],[-45.02465,-23.54396],[-45.02582,-23.54926],[-45.03332,-23.54871]]],[[[-44.85138,-23.39918],[-44.85338,-23.40323],[-44.84943,-23.39494],[-44.85138,-23.39918]]],[[[-44.9445,-23.38735],[-44.94505,-23.38338],[-44.94054,-23.38352],[-44.9445,-23.38735]]],[[[-46.97702,-24.37228],[-46.979,-24.3679],[-46.97488,-24.36962],[-46.97702,-24.37228]]],[[[-47.91351,-25.16685],[-47.91141,-25.16292],[-47.90841,-25.16695],[-47.91351,-25.16685]]],[[[-45.22861,-23.81321],[-45.22524,-23.81368],[-45.22823,-23.81709],[-45.22861,-23.81321]]],[[[-45.32517,-23.91591],[-45.32093,-23.91494],[-45.32407,-23.91863],[-45.32517,-23.91591]]],[[[-45.71404,-23.79018],[-45.71256,-23.78726],[-45.70908,-23.78821],[-45.71404,-23.79018]]],[[[-45.27613,-23.85242],[-45.27863,-23.85495],[-45.27976,-23.85208],[-45.27613,-23.85242]]],[[[-45.29719,-23.92059],[-45.297,-23.91697],[-45.29448,-23.91876],[-45.29719,-23.92059]]],[[[-45.15636,-23.83077],[-45.15386,-23.82863],[-45.15308,-23.83163],[-45.15636,-23.83077]]],[[[-45.67173,-23.80468],[-45.67033,-23.802],[-45.66883,-23.80494],[-45.67173,-23.80468]]]]}}]}