{"type": "FeatureCollection", "features": [{"id": "0", "type": "Feature", "properties": {"OID_": 0, "Name": "Zona de Conserva\u00c3\u00a7\u00c3\u00a3o dos Recursos H\u00c3\u00addricos", "FolderPath": "Zoneamento_Plano_de_Manejo_APA.kmz/Zoneamento_Plano_de_Manejo_APA", "SymbolID": 0, "AltMode": 0, "Base": 0.0, "Clamped": -1, "Extruded": 0, "Snippet": null, "PopupInfo": null, "Shape_Leng": 4.24491969947, "Shape_Area": 0.0377269081446}, "geometry": {"type": "Polygon", "coordinates": [[[-47.17196169000097, -23.56084223269189, 0.0], [-47.16985009700096, -23.5621603026919, 0.0], [-47.169868697000986, -23.563292311691935, 0.0], [-47.17073330900099, -23.565361161691964, 0.0], [-47.17366197200097, -23.567676561692014, 0.0], [-47.17397202900102, -23.57019878369211, 0.0], [-47.171357348001, -23.57283649969213, 0.0], [-47.16238767300096, -23.57783433969223, 0.0], [-47.15965108300097, -23.577107362692225, 0.0], [-47.157233321000966, -23.575193343692213, 0.0], [-47.15387706700091, -23.57662327569225, 0.0], [-47.1422690150009, -23.578651340692293, 0.0], [-47.13098125900084, -23.57728489269227, 0.0], [-47.12298526100083, -23.57774632569228, 0.0], [-47.118694134000826, -23.577113221692223, 0.0], [-47.11774018600081, -23.57850961269227, 0.0], [-47.11512648700078, -23.579444424692326, 0.0], [-47.10991656200081, -23.57771687569227, 0.0], [-47.108458985000816, -23.58050344569235, 0.0], [-47.10880355700076, -23.583265544692416, 0.0], [-47.10777215800077, -23.58452459569243, 0.0], [-47.1081940380008, -23.587423984692474, 0.0], [-47.106483436000794, -23.588484740692515, 0.0], [-47.101755751000795, -23.58875630969254, 0.0], [-47.099108703000766, -23.587616229692472, 0.0], [-47.09331212300077, -23.586795267692477, 0.0], [-47.09182378700071, -23.585449470692453, 0.0], [-47.091646189000755, -23.5837226146924, 0.0], [-47.087085907000755, -23.580325459692315, 0.0], [-47.08573426400071, -23.58034361569232, 0.0], [-47.083371741000725, -23.582934618692413, 0.0], [-47.07587657600075, -23.583934192692425, 0.0], [-47.0750962700007, -23.58207701769237, 0.0], [-47.073580284000684, -23.581198048692382, 0.0], [-47.06627356100068, -23.579842836692322, 0.0], [-47.063658319000666, -23.580707652692336, 0.0], [-47.06079399800066, -23.580053972692358, 0.0], [-47.05866047900066, -23.57730478169228, 0.0], [-47.05662884100066, -23.578379755692293, 0.0], [-47.05389529000066, -23.57822959969227, 0.0], [-47.04741866300068, -23.573234300692192, 0.0], [-47.0432568590006, -23.568596601692096, 0.0], [-47.038466465000596, -23.566158117692005, 0.0], [-47.03668508700062, -23.56217923069195, 0.0], [-47.035099306000596, -23.56207493269194, 0.0], [-47.03089321500058, -23.568175020692074, 0.0], [-47.026856716000566, -23.570604064692123, 0.0], [-47.02146701100059, -23.580826236692346, 0.0], [-47.02155322900057, -23.5864532936925, 0.0], [-47.01961782200054, -23.587187208692484, 0.0], [-47.02227174100057, -23.59155811269261, 0.0], [-47.02878357400057, -23.59210727269261, 0.0], [-47.02879766200059, -23.593023018692598, 0.0], [-47.0259943710006, -23.594821028692675, 0.0], [-47.02505941300059, -23.598708320692747, 0.0], [-47.02331645607476, -23.599482603241977, 0.0], [-47.02073505000062, -23.599121911692745, 0.0], [-47.02119088985342, -23.600098618694688, 0.0], [-47.02055875389937, -23.60017609277816, 0.0], [-47.019806038000574, -23.595116688692684, 0.0], [-47.01772728600058, -23.594576404692667, 0.0], [-47.016048655000574, -23.594880036692658, 0.0], [-47.010982406000586, -23.598820856692775, 0.0], [-47.00752703100053, -23.59802009869274, 0.0], [-47.00676954000052, -23.59852308969275, 0.0], [-47.0064975570027, -23.60247228183558, 0.0], [-47.00332137500056, -23.604003082692888, 0.0], [-47.00348400531187, -23.605033940688877, 0.0], [-46.999072952000525, -23.607463316692947, 0.0], [-46.99609927000051, -23.611896380693057, 0.0], [-46.99655537700051, -23.61835511469317, 0.0], [-46.995751162000545, -23.62432719769334, 0.0], [-46.99620448400053, -23.62587154769338, 0.0], [-46.99844929900053, -23.627425804693363, 0.0], [-46.99935628600055, -23.63288922169353, 0.0], [-46.99812257200052, -23.634224426693546, 0.0], [-46.99402807900055, -23.63592626469363, 0.0], [-46.990779470000525, -23.645208558693824, 0.0], [-46.986845072000506, -23.652462195693953, 0.0], [-46.987734944000515, -23.655738128694008, 0.0], [-46.98650627200053, -23.65810102269412, 0.0], [-46.9883749690005, -23.660107469694132, 0.0], [-46.98865947900055, -23.66155411569416, 0.0], [-46.98793754100052, -23.66591427169428, 0.0], [-46.99269925900052, -23.668173560694314, 0.0], [-46.99437897600053, -23.671322945694357, 0.0], [-46.99368331400051, -23.67394242769441, 0.0], [-46.99632658400054, -23.678500961694535, 0.0], [-46.99557278800052, -23.68438710569463, 0.0], [-46.99786663400051, -23.686677980694718, 0.0], [-46.99435145600052, -23.690445715694807, 0.0], [-46.99535792300055, -23.694445207694898, 0.0], [-46.998013773000544, -23.6963446586949, 0.0], [-46.99991366100051, -23.700241632695047, 0.0], [-46.99770509500052, -23.70532965769512, 0.0], [-46.997755304000535, -23.708626206695214, 0.0], [-46.99958950000054, -23.71089723069525, 0.0], [-47.001389729000564, -23.71144242969525, 0.0], [-47.00502151400057, -23.714578884695314, 0.0], [-47.005287754000534, -23.715826088695373, 0.0], [-47.00470645800052, -23.7182212406954, 0.0], [-47.002437922000546, -23.719387592695472, 0.0], [-47.004011138000536, -23.721243196695454, 0.0], [-47.00387532200054, -23.724485291695547, 0.0], [-47.00129685500056, -23.725911778695615, 0.0], [-47.001026988000575, -23.72847343169564, 0.0], [-47.00465488500058, -23.735361875695823, 0.0], [-47.00564351600056, -23.739385247695925, 0.0], [-47.00830980000054, -23.742338972695993, 0.0], [-47.00780957600055, -23.755654471696268, 0.0], [-47.00600791300058, -23.75899129469633, 0.0], [-47.00790398600058, -23.76180672169642, 0.0], [-47.011236664000585, -23.764319409696448, 0.0], [-47.01265181900062, -23.769318407696577, 0.0], [-47.01081810400057, -23.770572992696543, 0.0], [-47.01157061400054, -23.772645899696617, 0.0], [-47.01117346500057, -23.77359775969666, 0.0], [-47.00932804100056, -23.774095134696633, 0.0], [-47.00811471000057, -23.77553095369667, 0.0], [-47.008055396000564, -23.77837178469674, 0.0], [-47.009962013000575, -23.78184970569684, 0.0], [-47.0155759170006, -23.78537388569691, 0.0], [-47.01820487900055, -23.788936915697022, 0.0], [-47.022535645000595, -23.789353548697004, 0.0], [-47.02381620400059, -23.790075304697034, 0.0], [-47.02403967900058, -23.791208388697076, 0.0], [-47.03105433800058, -23.792062881697028, 0.0], [-47.036561491000654, -23.788676923697, 0.0], [-47.040380532000654, -23.789289139697004, 0.0], [-47.04222158000063, -23.788507444696965, 0.0], [-47.04532154900064, -23.789223719696995, 0.0], [-47.05322511900064, -23.794230750697086, 0.0], [-47.055795664000684, -23.794007183697097, 0.0], [-47.057518822000695, -23.792280213697083, 0.0], [-47.06519137000072, -23.789148377696975, 0.0], [-47.06650259500074, -23.78742682969697, 0.0], [-47.0681817340007, -23.787258505696954, 0.0], [-47.07021793200069, -23.785811208696884, 0.0], [-47.0717649340007, -23.785979777696934, 0.0], [-47.07280627800075, -23.78672312069696, 0.0], [-47.072442582000726, -23.789757317697017, 0.0], [-47.07486220998876, -23.78966103258034, 0.0], [-47.07703648100071, -23.7937661706971, 0.0], [-47.082883176000735, -23.797538172697198, 0.0], [-47.08342355400077, -23.799140187697247, 0.0], [-47.08297225000075, -23.80312223069727, 0.0], [-47.08146276200075, -23.805319915697314, 0.0], [-47.08250281000073, -23.80596853169738, 0.0], [-47.08336416000077, -23.80832353169739, 0.0], [-47.08699129909673, -23.809236771958933, 0.0], [-47.087238396000785, -23.812341738697466, 0.0], [-47.09137523100079, -23.814052837697552, 0.0], [-47.0939733310008, -23.81419610269757, 0.0], [-47.09913058887592, -23.812503401618272, 0.0], [-47.10216242500081, -23.814340872697525, 0.0], [-47.10595228302387, -23.81320749971051, 0.0], [-47.10854541400081, -23.81425370469756, 0.0], [-47.111479705000846, -23.817002994697592, 0.0], [-47.115509514000834, -23.81629482969761, 0.0], [-47.115629478000855, -23.81504625669755, 0.0], [-47.11697962900083, -23.81376646369755, 0.0], [-47.116831556000875, -23.811360637697458, 0.0], [-47.11844269000082, -23.807927378697382, 0.0], [-47.119626835075685, -23.80780196982188, 0.0], [-47.12127375500085, -23.810588761697453, 0.0], [-47.12360184600091, -23.810980889697465, 0.0], [-47.12598825918747, -23.80619686078168, 0.0], [-47.13140005117297, -23.8040296590741, 0.0], [-47.134324361000935, -23.806582937697396, 0.0], [-47.1375498580009, -23.806574434697364, 0.0], [-47.1411102830009, -23.804260527697306, 0.0], [-47.14608061900094, -23.803388830697298, 0.0], [-47.148258906406106, -23.79997114181001, 0.0], [-47.15039940300092, -23.801045891697107, 0.0], [-47.15113197500093, -23.803816240697305, 0.0], [-47.15247075700096, -23.80471050869735, 0.0], [-47.15696458700097, -23.805014187697363, 0.0], [-47.15931390318147, -23.80197751680098, 0.0], [-47.166452013001006, -23.808534501697384, 0.0], [-47.170159266214945, -23.808207957198714, 0.0], [-47.17307807200101, -23.808875993697413, 0.0], [-47.17408878000104, -23.8127743426975, 0.0], [-47.175852585001046, -23.81361892469753, 0.0], [-47.1805537810678, -23.81300124877498, 0.0], [-47.18248616200108, -23.814394619697513, 0.0], [-47.18196242200109, -23.817010420697613, 0.0], [-47.175564773001035, -23.82188290169772, 0.0], [-47.17500084100105, -23.824933986697758, 0.0], [-47.17629396400106, -23.828367133697856, 0.0], [-47.18132910099465, -23.827703118314556, 0.0], [-47.1878913244871, -23.82958648416063, 0.0], [-47.189430325001055, -23.830485109697882, 0.0], [-47.1892340400011, -23.832878908697925, 0.0], [-47.192710163001095, -23.833378160697926, 0.0], [-47.19606700800111, -23.836112605698037, 0.0], [-47.19696098700111, -23.84144700269813, 0.0], [-47.20105494300116, -23.84299704169815, 0.0], [-47.20397319324007, -23.843096962113734, 0.0], [-47.20710109800116, -23.845301506698185, 0.0], [-47.21019883866321, -23.845011842223744, 0.0], [-47.21425979700117, -23.84650975969824, 0.0], [-47.21539842500116, -23.845662139698216, 0.0], [-47.213080032001166, -23.842184175698126, 0.0], [-47.21221288000121, -23.836994175698063, 0.0], [-47.21546231300115, -23.83567194669797, 0.0], [-47.21671132500118, -23.833991489697976, 0.0], [-47.216716896001216, -23.832486568697938, 0.0], [-47.21834629500119, -23.83210482169793, 0.0], [-47.219145732001195, -23.83055980669788, 0.0], [-47.21859475310685, -23.82886020366888, 0.0], [-47.220436754001184, -23.82940442269786, 0.0], [-47.22222919700119, -23.83189997269794, 0.0], [-47.22409262900126, -23.831950320697935, 0.0], [-47.22562717800123, -23.826926375697806, 0.0], [-47.228077286001245, -23.82352300769772, 0.0], [-47.23567165500128, -23.82123460769767, 0.0], [-47.23381372400126, -23.81826621569761, 0.0], [-47.234489649001254, -23.815891683697565, 0.0], [-47.23565996597052, -23.815703178536022, 0.0], [-47.24159065500132, -23.82059314469764, 0.0], [-47.249432952001335, -23.822869834697705, 0.0], [-47.252512153001334, -23.823053157697707, 0.0], [-47.256787645001374, -23.82075488469764, 0.0], [-47.26309083400139, -23.821307381697657, 0.0], [-47.266255470001404, -23.817849980697584, 0.0], [-47.27434027200143, -23.817845553697563, 0.0], [-47.27547748700141, -23.816954551697584, 0.0], [-47.27537696400145, -23.812083339697484, 0.0], [-47.27614977800142, -23.80995087669741, 0.0], [-47.27963719500148, -23.808064928697377, 0.0], [-47.28130204700143, -23.806177218697332, 0.0], [-47.28426078100147, -23.806133416697353, 0.0], [-47.28769384598631, -23.80455136761111, 0.0], [-47.2901537720015, -23.805215819697292, 0.0], [-47.29355025403682, -23.804628415475058, 0.0], [-47.29750841000155, -23.80762868169737, 0.0], [-47.300721567001574, -23.808597303697358, 0.0], [-47.30576109600158, -23.803778373697252, 0.0], [-47.309992510001614, -23.80172300369722, 0.0], [-47.314111138001586, -23.795068896697114, 0.0], [-47.31752732500164, -23.793613149697027, 0.0], [-47.31801032100166, -23.79274602069703, 0.0], [-47.317296760001646, -23.79115164569698, 0.0], [-47.3153085130016, -23.78969105169697, 0.0], [-47.30675186191933, -23.788497654886047, 0.0], [-47.30426375800154, -23.78688983269687, 0.0], [-47.30308035300159, -23.78071637369677, 0.0], [-47.30167419500157, -23.77868797169671, 0.0], [-47.30278774700156, -23.777367210696696, 0.0], [-47.305863610001566, -23.777822881696704, 0.0], [-47.30566546600155, -23.775418181696644, 0.0], [-47.30279741000157, -23.767306467696468, 0.0], [-47.30114940400153, -23.765682934696443, 0.0], [-47.30170175278962, -23.764977418555812, 0.0], [-47.30456132000156, -23.76490114569641, 0.0], [-47.304908673001556, -23.763405502696372, 0.0], [-47.30203942600155, -23.76139892269632, 0.0], [-47.301781471001554, -23.760012625696273, 0.0], [-47.298443341001516, -23.757898307696244, 0.0], [-47.297471841001524, -23.75488883869617, 0.0], [-47.29727691425754, -23.756900898799326, 0.0], [-47.296983449001544, -23.75630657169624, 0.0], [-47.29782955800151, -23.748865397696083, 0.0], [-47.30480009600158, -23.743989405695963, 0.0], [-47.30621546600158, -23.741868539695883, 0.0], [-47.30648618400154, -23.73760138069579, 0.0], [-47.31129858400161, -23.73199379469567, 0.0], [-47.31927027800166, -23.7329560586957, 0.0], [-47.32083261800163, -23.731341899695675, 0.0], [-47.32113104100162, -23.72866503169558, 0.0], [-47.320057735001654, -23.726645039695548, 0.0], [-47.31995203000164, -23.72430132669549, 0.0], [-47.32310236500164, -23.723152109695462, 0.0], [-47.32461757700166, -23.721184788695425, 0.0], [-47.32729581300168, -23.712997908695275, 0.0], [-47.33463834900169, -23.713859506695254, 0.0], [-47.338830928001705, -23.711916439695184, 0.0], [-47.34151204400173, -23.71213514169525, 0.0], [-47.342034020001776, -23.71374767869523, 0.0], [-47.346717503001784, -23.715621204695267, 0.0], [-47.35079462200181, -23.715105555695306, 0.0], [-47.35281397600178, -23.713778497695262, 0.0], [-47.356935188001835, -23.707882190695127, 0.0], [-47.357841682001826, -23.705581423695044, 0.0], [-47.357305583001846, -23.703191355694997, 0.0], [-47.35972744000184, -23.700756195694943, 0.0], [-47.36336861900187, -23.699533906694917, 0.0], [-47.36349818500186, -23.694994729694844, 0.0], [-47.367532762001865, -23.688256898694686, 0.0], [-47.37640396100191, -23.686410802694642, 0.0], [-47.37914433100195, -23.67826661369444, 0.0], [-47.38180183000197, -23.67637871669439, 0.0], [-47.38140629400192, -23.673986582694322, 0.0], [-47.37801246400192, -23.673260940694362, 0.0], [-47.375372094001904, -23.671356960694297, 0.0], [-47.374738531001896, -23.667477661694225, 0.0], [-47.3732975930019, -23.665684873694182, 0.0], [-47.368929333001894, -23.663482313694153, 0.0], [-47.36539501000188, -23.66275851969412, 0.0], [-47.36453264700187, -23.661799426694078, 0.0], [-47.364908036001886, -23.658914448694023, 0.0], [-47.36642776300185, -23.65727080969399, 0.0], [-47.36729632900185, -23.65466484869395, 0.0], [-47.36673352900185, -23.650784407693834, 0.0], [-47.368022113001864, -23.648042394693785, 0.0], [-47.369976914001874, -23.647105070693755, 0.0], [-47.370300873001895, -23.645544501693745, 0.0], [-47.37148009300188, -23.644554203693676, 0.0], [-47.37642537600196, -23.645450711693744, 0.0], [-47.38047317700193, -23.64344408369368, 0.0], [-47.38190689300194, -23.64484802869372, 0.0], [-47.38539300600198, -23.645680042693748, 0.0], [-47.389962854002015, -23.6452855546937, 0.0], [-47.39135073700204, -23.644162264693662, 0.0], [-47.39521065200203, -23.64345449569367, 0.0], [-47.39803421100206, -23.639975566693618, 0.0], [-47.399523753002086, -23.636711697693507, 0.0], [-47.40079669400207, -23.637016070693516, 0.0], [-47.40253871000204, -23.636016838693486, 0.0], [-47.40321065800209, -23.63425638369348, 0.0], [-47.402473645002054, -23.63245294969343, 0.0], [-47.402796011002096, -23.630827547693393, 0.0], [-47.40417771500208, -23.629380171693363, 0.0], [-47.403636835002104, -23.626313595693276, 0.0], [-47.40572469400209, -23.62498489569327, 0.0], [-47.412047359002166, -23.624238524693265, 0.0], [-47.41391206500215, -23.62226503169322, 0.0], [-47.41407806700211, -23.61979943969314, 0.0], [-47.41143741700212, -23.6180705836931, 0.0], [-47.40759828300213, -23.619640890693148, 0.0], [-47.40512784500209, -23.619290318693125, 0.0], [-47.4026325910021, -23.617578947693104, 0.0], [-47.402465826002064, -23.616155569693056, 0.0], [-47.400450326002044, -23.61372374369303, 0.0], [-47.39764109200203, -23.614091268693045, 0.0], [-47.396061024002016, -23.60974762069291, 0.0], [-47.39176898800201, -23.604626029692845, 0.0], [-47.391557308002014, -23.600673941692737, 0.0], [-47.387014987002004, -23.59716111469265, 0.0], [-47.385152517001956, -23.59478213069256, 0.0], [-47.38386688300193, -23.58990065969247, 0.0], [-47.38245329100192, -23.58911981869247, 0.0], [-47.37902531400188, -23.58786825169245, 0.0], [-47.37496843900192, -23.588263557692432, 0.0], [-47.37299172801222, -23.589832398272232, 0.0], [-47.370771811001866, -23.589785883692457, 0.0], [-47.3626642040018, -23.58684259369243, 0.0], [-47.35954212700178, -23.584425095692396, 0.0], [-47.351123393001764, -23.58144289469231, 0.0], [-47.34110963900171, -23.58143652169228, 0.0], [-47.33899124800169, -23.58035059169226, 0.0], [-47.33837371900167, -23.57358114169216, 0.0], [-47.33196522200166, -23.573433840692125, 0.0], [-47.33088128800165, -23.57280519269214, 0.0], [-47.329729236001626, -23.570959383692042, 0.0], [-47.32787509500165, -23.563048639691864, 0.0], [-47.32679601100161, -23.56155889069186, 0.0], [-47.31965114000159, -23.561965241691837, 0.0], [-47.31540339200155, -23.559595909691794, 0.0], [-47.31055635300157, -23.56210073069187, 0.0], [-47.30693797700152, -23.562154486691878, 0.0], [-47.30335085200149, -23.563326983691912, 0.0], [-47.30103677500148, -23.561684459691843, 0.0], [-47.29873339700152, -23.561546566691867, 0.0], [-47.29417576400146, -23.56141327069185, 0.0], [-47.29195907911405, -23.56284059147797, 0.0], [-47.28754318600143, -23.56086610969188, 0.0], [-47.281616923081664, -23.564233337410123, 0.0], [-47.278708793001414, -23.563360644691894, 0.0], [-47.272479842001346, -23.55645790269177, 0.0], [-47.27126479000139, -23.556318011691776, 0.0], [-47.260249984003934, -23.569628253725895, 0.0], [-47.25682104379945, -23.570132780263883, 0.0], [-47.25408406598167, -23.569547141529988, 0.0], [-47.25353983700128, -23.565606545691995, 0.0], [-47.25003750200127, -23.561517021691852, 0.0], [-47.24976930400129, -23.560165903691814, 0.0], [-47.25041397700125, -23.559629625691848, 0.0], [-47.249420688001265, -23.55889122669182, 0.0], [-47.244266833001305, -23.558589341691807, 0.0], [-47.24195991100128, -23.557493464691785, 0.0], [-47.23981130400122, -23.560911958691875, 0.0], [-47.238751659001224, -23.561077782691864, 0.0], [-47.232148901001224, -23.557258276691798, 0.0], [-47.22995555600118, -23.55804254469179, 0.0], [-47.22321013400116, -23.558154950691808, 0.0], [-47.2228497330012, -23.56102069769184, 0.0], [-47.224509254001156, -23.562502527691876, 0.0], [-47.225138287001165, -23.56588106169201, 0.0], [-47.224004472001134, -23.566499521692013, 0.0], [-47.22064416200117, -23.56594535069197, 0.0], [-47.21472431100112, -23.563846745691972, 0.0], [-47.213346584001144, -23.564543885691954, 0.0], [-47.21317083600114, -23.568686735692076, 0.0], [-47.211974134001125, -23.57043519569211, 0.0], [-47.208548405001096, -23.570860325692088, 0.0], [-47.206549557001104, -23.57352349969219, 0.0], [-47.20451920100112, -23.574305116692177, 0.0], [-47.19976451900113, -23.57346916269218, 0.0], [-47.19876134400106, -23.57212833369213, 0.0], [-47.19589750500105, -23.57194299869211, 0.0], [-47.19436780400106, -23.56842646869203, 0.0], [-47.195549716001075, -23.565774984692013, 0.0], [-47.194309015001046, -23.564889152692007, 0.0], [-47.18859537700105, -23.565346127691967, 0.0], [-47.18744516200103, -23.56498592369196, 0.0], [-47.186735375001035, -23.56160831369191, 0.0], [-47.179815864001014, -23.561334514691904, 0.0], [-47.17709458800096, -23.559867051691874, 0.0], [-47.17534883300097, -23.553116257691684, 0.0], [-47.172076874001014, -23.552936166691694, 0.0], [-47.169895529000996, -23.554472241691712, 0.0], [-47.16985956200098, -23.55725812669182, 0.0], [-47.17196169000097, -23.56084223269189, 0.0]]]}}]}